{
"type": "FeatureCollection",
"name": "boonsiew",
"crs": { "type": "name", "properties": { "name": "urn:ogc:def:crs:EPSG::4921" } },
"features": [
{ "type": "Feature", "properties": { "OBJECTID": 1, "Shape_Length": 449.06742150096562, "Shape_Area": 8818.1697849996235, "LOT": 1411, "NEGERI": "Pulau Pinang", "DAERAH": "Barat Daya", "MUKIM": "Mukim 11", "AREA": 0.8818, "REGISTRATION": "Geran Mukim", "NO_HAKMILIK": "1030", "CUKAI": "RM27.00", "SYARAT": "First Grade", "SYARIKAT": "Boon Siew Sdn. Bhd.", "ALAMAT": "1, Jalan Penang, George Town, 10450 George Town, Pulau Pinang", "STD_SHEET": "15-C-III" }, "geometry": { "type": "MultiPolygon", "coordinates": [ [ [ [ -9729.334999999962747, -15316.546000000002095, 0.000000000000455 ], [ -9734.473999999987427, -15320.245999999984633, 0.000000000000455 ], [ -9748.168999999994412, -15331.269999999989523, 0.000000000000455 ], [ -9757.885999999998603, -15340.901000000012573, 0.000000000000455 ], [ -9773.21399999994901, -15356.328000000008615, 0.000000000000455 ], [ -9800.391999999963446, -15327.799, 0.000000000000455 ], [ -9837.01600000000326, -15387.638999999995576, 0.000000000000455 ], [ -9858.4769999999844, -15377.551999999996042, 0.000000000000455 ], [ -9854.046999999962281, -15364.229999999981374, 0.000000000000455 ], [ -9854.582999999984168, -15340.545999999972992, 0.000000000000455 ], [ -9851.513999999995576, -15316.502000000007683, 0.000000000000455 ], [ -9844.795999999972992, -15312.315000000002328, 0.000000000000455 ], [ -9838.737999999983003, -15291.010999999998603, 0.000000000000455 ], [ -9800.556000000011409, -15242.535999999992782, 0.000000000000455 ], [ -9729.334999999962747, -15316.546000000002095, 0.000000000000455 ] ] ] ] } },
{ "type": "Feature", "properties": { "OBJECTID": 2, "Shape_Length": 506.23717270224324, "Shape_Area": 7271.1236260001297, "LOT": 1412, "NEGERI": "Pulau Pinang", "DAERAH": "Barat Daya", "MUKIM": "Mukim 11", "AREA": 0.7267, "REGISTRATION": "Geran Mukim", "NO_HAKMILIK": "1031", "CUKAI": "RM10.00", "SYARAT": "Second Class", "SYARIKAT": "Boon Siew Sdn. Bhd.", "ALAMAT": "1, Jalan Penang, George Town, 10450 George Town, Pulau Pinang", "STD_SHEET": "15-C-III" }, "geometry": { "type": "MultiPolygon", "coordinates": [ [ [ [ -9773.21399999994901, -15356.328000000008615, 0.000000000000455 ], [ -9782.410000000003492, -15368.160000000003492, 0.000000000000455 ], [ -9794.3519999999844, -15383.122999999992317, 0.000000000000455 ], [ -9800.421000000002095, -15400.793000000005122, 0.000000000000455 ], [ -9806.385999999998603, -15417.592999999964377, 0.000000000000455 ], [ -9818.307999999989988, -15431.834999999991851, 0.000000000000455 ], [ -9823.412999999971362, -15437.937999999994645, 0.000000000000455 ], [ -9828.315999999991618, -15456.836000000010245, 0.000000000000455 ], [ -9875.011999999987893, -15508.86699999999837, 0.000000000000455 ], [ -9890.938999999983935, -15526.24299999998766, 0.000000000000455 ], [ -9916.421000000002095, -15527.248999999981606, 0.000000000000455 ], [ -9907.027000000001863, -15515.341999999975087, 0.000000000000455 ], [ -9894.137999999977183, -15497.354999999981374, 0.000000000000455 ], [ -9863.928999999974621, -15437.86699999999837, 0.000000000000455 ], [ -9837.01600000000326, -15387.638999999995576, 0.000000000000455 ], [ -9800.391999999963446, -15327.799, 0.000000000000455 ], [ -9773.21399999994901, -15356.328000000008615, 0.000000000000455 ] ] ] ] } },
{ "type": "Feature", "properties": { "OBJECTID": 3, "Shape_Length": 367.21082054696336, "Shape_Area": 8325.3998029991835, "LOT": 10008, "NEGERI": "Pulau Pinang", "DAERAH": "Barat Daya", "MUKIM": "Mukim 1", "AREA": 8.325, "REGISTRATION": "Geran Mukim", "NO_HAKMILIK": "578", "CUKAI": "RM17.00", "SYARAT": "First Grade", "SYARIKAT": "Major Income Sdn. Bhd.", "ALAMAT": "Suite 1, 2nd Floor, Wisma Lister Garden, No.123, Jalan Macalister, 10400 Georgetown, Pulau Pinang", "STD_SHEET": "14-B-III" }, "geometry": { "type": "MultiPolygon", "coordinates": [ [ [ [ -15371.948000000003958, -10970.100999999995111, 0.000000000000455 ], [ -15401.502999999996973, -10966.027999999991152, 0.000000000000455 ], [ -15455.87599999998929, -10948.453999999997905, 0.000000000000455 ], [ -15455.194999999992433, -10944.964999999967404, 0.000000000000455 ], [ -15443.150999999983469, -10857.641000000032363, 0.000000000000455 ], [ -15412.478999999977532, -10861.214999999967404, 0.000000000000455 ], [ -15363.997000000003027, -10861.223999999987427, 0.000000000000455 ], [ -15369.296000000002095, -10933.730000000010477, 0.000000000000455 ], [ -15371.948000000003958, -10970.100999999995111, 0.000000000000455 ] ] ] ] } },
{ "type": "Feature", "properties": { "OBJECTID": 4, "Shape_Length": 196.85638874230463, "Shape_Area": 2518.5727834997451, "LOT": 530, "NEGERI": "Pulau Pinang", "DAERAH": "Timor Laut", "MUKIM": "Georgetown", "AREA": 27.11, "REGISTRATION": "Geran", "NO_HAKMILIK": "Gt. 2228, 2233", "CUKAI": "RM814.00", "SYARAT": "First Grade", "SYARIKAT": "Boon Siew Sdn. Bhd.", "ALAMAT": "1, Jalan Penang, George Town, 10450 George Town, Pulau Pinang", "STD_SHEET": "7-D-III" }, "geometry": { "type": "MultiPolygon", "coordinates": [ [ [ [ -3988.560999999957858, 424.751000000018394, 0.000000000000455 ], [ -3942.98699999996461, 410.496000000013737, 0.000000000000455 ], [ -3939.975999999995111, 404.76500000001397, 0.000000000000455 ], [ -3950.519999999960419, 370.719000000040978, 0.000000000000455 ], [ -3955.968999999982771, 365.491000000038184, 0.000000000000455 ], [ -4005.567999999970198, 380.173000000009779, 0.000000000000455 ], [ -3988.99299999998766, 423.619000000035157, 0.000000000000455 ], [ -3988.560999999957858, 424.751000000018394, 0.000000000000455 ] ] ] ] } },
{ "type": "Feature", "properties": { "OBJECTID": 5, "Shape_Length": 289.83272775175624, "Shape_Area": 1297.7613724982107, "LOT": 20001, "NEGERI": "Pulau Pinang", "DAERAH": "Barat Daya", "MUKIM": "Mukim 11", "AREA": 1298.0, "REGISTRATION": "Geran Mukim", "NO_HAKMILIK": "1392", "CUKAI": "RM16.00", "SYARAT": "First Grade", "SYARIKAT": "Dynamite Pacific Sdn. Bhd.", "ALAMAT": "Suite 1, 2nd Floor, Wisma Lister Garden, No.123, Jalan Macalister, 10400 Georgetown, Pulau Pinang", "STD_SHEET": "15-C-III" }, "geometry": { "type": "MultiPolygon", "coordinates": [ [ [ [ -11234.782000000006519, -14624.591000000014901, 0.000000000000455 ], [ -11195.505999999964843, -14623.809999999997672, 0.000000000000455 ], [ -11152.163999999989755, -14651.138000000006286, 0.000000000000455 ], [ -11147.432, -14688.734999999956926, 0.000000000000455 ], [ -11152.801000000006752, -14702.261999999987893, 0.000000000000455 ], [ -11158.693, -14676.844000000011874, 0.000000000000455 ], [ -11159.908999999955995, -14654.684999999997672, 0.000000000000455 ], [ -11169.60299999997369, -14640.647999999957392, 0.000000000000455 ], [ -11178.916999999986729, -14637.630999999993946, 0.000000000000455 ], [ -11195.293999999994412, -14638.845000000001164, 0.000000000000455 ], [ -11220.331999999965774, -14648.937999999965541, 0.000000000000455 ], [ -11234.782000000006519, -14624.591000000014901, 0.000000000000455 ] ] ] ] } },
{ "type": "Feature", "properties": { "OBJECTID": 6, "Shape_Length": 276.26673766675299, "Shape_Area": 2393.517329499422, "LOT": 1063, "NEGERI": "Pulau Pinang", "DAERAH": "Barat Daya", "MUKIM": "Mukim 11", "AREA": 0.2397, "REGISTRATION": "Geran Mukim", "NO_HAKMILIK": "1168", "CUKAI": "RM16.00", "SYARAT": "First Grade", "SYARIKAT": "Dynamite Pacific Sdn. Bhd.", "ALAMAT": "Suite 1, 2nd Floor, Wisma Lister Garden, No.123, Jalan Macalister, 10400 Georgetown, Pulau Pinang", "STD_SHEET": "15-C-III" }, "geometry": { "type": "MultiPolygon", "coordinates": [ [ [ [ -11173.617999999958556, -14802.326, 0.000000000000455 ], [ -11174.858999999967637, -14806.129000000015367, 0.000000000000455 ], [ -11176.252999999996973, -14827.405999999988126, 0.000000000000455 ], [ -11295.829999999987194, -14792.963999999978114, 0.000000000000455 ], [ -11261.709999999991851, -14781.516999999992549, 0.000000000000455 ], [ -11173.617999999958556, -14802.326, 0.000000000000455 ] ] ] ] } },
{ "type": "Feature", "properties": { "OBJECTID": 7, "Shape_Length": 267.05883290820742, "Shape_Area": 4338.4659910003329, "LOT": 1058, "NEGERI": "Pulau Pinang", "DAERAH": "Barat Daya", "MUKIM": "Mukim 11", "AREA": 4.338, "REGISTRATION": "Geran Mukim", "NO_HAKMILIK": "1163", "CUKAI": "RM20.00", "SYARAT": "First Grade", "SYARIKAT": "Dynamite Pacific Sdn. Bhd.", "ALAMAT": "Suite 1, 2nd Floor, Wisma Lister Garden, No.123, Jalan Macalister, 10400 Georgetown, Pulau Pinang", "STD_SHEET": "15-C-III" }, "geometry": { "type": "MultiPolygon", "coordinates": [ [ [ [ -11240.326999999990221, -14727.4769999999844, 0.000000000000455 ], [ -11228.709999999991851, -14674.823000000003958, 0.000000000000455 ], [ -11218.198000000003958, -14661.459999999962747, 0.000000000000455 ], [ -11193.223999999987427, -14648.8519999999844, 0.000000000000455 ], [ -11174.963999999978114, -14652.731, 0.000000000000455 ], [ -11168.693999999988591, -14662.035000000003492, 0.000000000000455 ], [ -11165.105999999970663, -14706.470999999990454, 0.000000000000455 ], [ -11158.500999999960186, -14715.206999999965774, 0.000000000000455 ], [ -11240.326999999990221, -14727.4769999999844, 0.000000000000455 ] ] ] ] } },
{ "type": "Feature", "properties": { "OBJECTID": 8, "Shape_Length": 205.42809104272266, "Shape_Area": 854.6435325001446, "LOT": 672, "NEGERI": "Pulau Pinang", "DAERAH": "Barat Daya", "MUKIM": "Mukim 11", "AREA": 854.0, "REGISTRATION": "Geran Mukim", "NO_HAKMILIK": "325", "CUKAI": "RM16.00", "SYARAT": "Second Class", "SYARIKAT": "Dynamite Pacific Sdn. Bhd.", "ALAMAT": "Suite 1, 2nd Floor, Wisma Lister Garden, No.123, Jalan Macalister, 10400 Georgetown, Pulau Pinang", "STD_SHEET": "15-C-III" }, "geometry": { "type": "MultiPolygon", "coordinates": [ [ [ [ -11191.700000000011642, -14600.946999999956461, 0.000000000000455 ], [ -11195.320999999996275, -14623.738000000012107, 0.000000000000455 ], [ -11234.59599999996135, -14624.521999999997206, 0.000000000000455 ], [ -11261.814000000013039, -14580.95499999995809, 0.000000000000455 ], [ -11260.046999999991385, -14578.48399999999674, 0.000000000000455 ], [ -11229.920999999972992, -14609.937000000005355, 0.000000000000455 ], [ -11204.440000000002328, -14615.169999999983702, 0.000000000000455 ], [ -11191.700000000011642, -14600.946999999956461, 0.000000000000455 ] ] ] ] } },
{ "type": "Feature", "properties": { "OBJECTID": 9, "Shape_Length": 247.30593244859261, "Shape_Area": 3525.6625725005265, "LOT": 144, "NEGERI": "Pulau Pinang", "DAERAH": "Barat Daya", "MUKIM": "Mukim 11", "AREA": 3525.0, "REGISTRATION": "Geran Mukim", "NO_HAKMILIK": "644", "CUKAI": "RM16.00", "SYARAT": "Second Class", "SYARIKAT": "Dynamite Pacific Sdn. Bhd.", "ALAMAT": "Suite 1, 2nd Floor, Wisma Lister Garden, No.123, Jalan Macalister, 10400 Georgetown, Pulau Pinang", "STD_SHEET": "15-C-III" }, "geometry": { "type": "MultiPolygon", "coordinates": [ [ [ [ -11056.799, -14523.497999999992317, 0.000000000000455 ], [ -11054.217999999993481, -14519.030999999988126, 0.000000000000455 ], [ -11031.823000000003958, -14530.61699999999837, 0.000000000000455 ], [ -11033.062999999994645, -14560.989000000001397, 0.000000000000455 ], [ -11046.545000000012806, -14615.8519999999844, 0.000000000000455 ], [ -11066.045000000012806, -14609.753999999986263, 0.000000000000455 ], [ -11093.89000000001397, -14587.459999999962747, 0.000000000000455 ], [ -11056.799, -14523.497999999992317, 0.000000000000455 ] ] ] ] } },
{ "type": "Feature", "properties": { "OBJECTID": 10, "Shape_Length": 523.40713336883698, "Shape_Area": 11708.741454500541, "LOT": 1060, "NEGERI": "Pulau Pinang", "DAERAH": "Barat Daya", "MUKIM": "Mukim 11", "AREA": 1.172, "REGISTRATION": "Geran Mukim", "NO_HAKMILIK": "1165", "CUKAI": "RM47.00", "SYARAT": "First Grade", "SYARIKAT": "Dynamite Pacific Sdn. Bhd.", "ALAMAT": "Suite 1, 2nd Floor, Wisma Lister Garden, No.123, Jalan Macalister, 10400 Georgetown, Pulau Pinang", "STD_SHEET": "15-C-III" }, "geometry": { "type": "MultiPolygon", "coordinates": [ [ [ [ -11064.315999999991618, -14708.310999999957858, 0.000000000000455 ], [ -11064.394, -14689.648999999975786, 0.000000000000455 ], [ -11046.545000000012806, -14615.8519999999844, 0.000000000000455 ], [ -11033.062999999994645, -14560.989000000001397, 0.000000000000455 ], [ -11031.823000000003958, -14530.61699999999837, 0.000000000000455 ], [ -10991.687999999994645, -14584.827999999979511, 0.000000000000455 ], [ -10958.199999999982538, -14605.36099999997532, 0.000000000000455 ], [ -10922.122000000003027, -14635.516999999992549, 0.000000000000455 ], [ -10909.709999999962747, -14651.1019999999844, 0.000000000000455 ], [ -10943.779999999969732, -14651.826999999961117, 0.000000000000455 ], [ -10976.907000000006519, -14673.337, 0.000000000000455 ], [ -11001.261999999987893, -14681.557999999989988, 0.000000000000455 ], [ -11038.798000000009779, -14701.74499999996624, 0.000000000000455 ], [ -11064.315999999991618, -14708.310999999957858, 0.000000000000455 ] ] ] ] } },
{ "type": "Feature", "properties": { "OBJECTID": 11, "Shape_Length": 569.24713397488813, "Shape_Area": 14088.074215497491, "LOT": 673, "NEGERI": "Pulau Pinang", "DAERAH": "Barat Daya", "MUKIM": "Mukim 11", "AREA": 14088.0, "REGISTRATION": "Geran Mukim", "NO_HAKMILIK": "326", "CUKAI": "RM60.00", "SYARAT": "Second Class", "SYARIKAT": "Dynamite Pacific Sdn. Bhd.", "ALAMAT": "Suite 1, 2nd Floor, Wisma Lister Garden, No.123, Jalan Macalister, 10400 Georgetown, Pulau Pinang", "STD_SHEET": "15-C-III" }, "geometry": { "type": "MultiPolygon", "coordinates": [ [ [ [ -11147.25099999998929, -14688.656999999977415, 0.000000000000455 ], [ -11151.980999999970663, -14651.062000000005355, 0.000000000000455 ], [ -11195.320999999996275, -14623.738000000012107, 0.000000000000455 ], [ -11191.700000000011642, -14600.946999999956461, 0.000000000000455 ], [ -11160.739999999990687, -14554.967000000004191, 0.000000000000455 ], [ -11144.337, -14500.837, 0.000000000000455 ], [ -11133.595999999990454, -14481.274999999994179, 0.000000000000455 ], [ -11113.288999999989755, -14448.122999999992317, 0.000000000000455 ], [ -11098.796000000002095, -14479.958999999973457, 0.000000000000455 ], [ -11056.799, -14523.497999999992317, 0.000000000000455 ], [ -11093.89000000001397, -14587.459999999962747, 0.000000000000455 ], [ -11108.651000000012573, -14612.512999999977183, 0.000000000000455 ], [ -11147.25099999998929, -14688.656999999977415, 0.000000000000455 ] ] ] ] } },
{ "type": "Feature", "properties": { "OBJECTID": 12, "Shape_Length": 532.92387285832388, "Shape_Area": 9594.289650504048, "LOT": 20151, "NEGERI": "Pulau Pinang", "DAERAH": "Barat Daya", "MUKIM": "Mukim 11", "AREA": 9594.0, "REGISTRATION": "Geran Mukim", "NO_HAKMILIK": "1467", "CUKAI": "RM39.00", "SYARAT": "First Grade", "SYARIKAT": "Dynamite Pacific Sdn. Bhd.", "ALAMAT": "Suite 1, 2nd Floor, Wisma Lister Garden, No.123, Jalan Macalister, 10400 Georgetown, Pulau Pinang", "STD_SHEET": "15-C-III" }, "geometry": { "type": "MultiPolygon", "coordinates": [ [ [ [ -11054.219000000011874, -14519.030999999988126, 0.000000000000455 ], [ -10932.163999999989755, -14482.543999999965308, 0.000000000000455 ], [ -10916.714000000007218, -14534.178999999974621, 0.000000000000455 ], [ -10866.184000000008382, -14519.057999999960884, 0.000000000000455 ], [ -10855.041999999957625, -14524.12599999998929, 0.000000000000455 ], [ -10857.565000000002328, -14529.674999999988358, 0.000000000000455 ], [ -10863.158999999985099, -14527.129999999975553, 0.000000000000455 ], [ -10870.194999999977881, -14542.600000000005821, 0.000000000000455 ], [ -10881.813999999983935, -14564.73699999996461, 0.000000000000455 ], [ -10979.236000000004424, -14565.203000000008615, 0.000000000000455 ], [ -10978.983000000007451, -14592.620999999955529, 0.000000000000455 ], [ -10991.690000000002328, -14584.827999999979511, 0.000000000000455 ], [ -11031.825000000011642, -14530.61699999999837, 0.000000000000455 ], [ -11054.219000000011874, -14519.030999999988126, 0.000000000000455 ] ] ] ] } },
{ "type": "Feature", "properties": { "OBJECTID": 13, "Shape_Length": 288.63666323763312, "Shape_Area": 4797.1232065019567, "LOT": 20152, "NEGERI": "Pulau Pinang", "DAERAH": "Barat Daya", "MUKIM": "Mukim 11", "AREA": 4797.0, "REGISTRATION": "Geran Mukim", "NO_HAKMILIK": "1468", "CUKAI": "RM20.00", "SYARAT": "First Grade", "SYARIKAT": "Dynamite Pacific Sdn. Bhd.", "ALAMAT": "Suite 1, 2nd Floor, Wisma Lister Garden, No.123, Jalan Macalister, 10400 Georgetown, Pulau Pinang", "STD_SHEET": "15-C-III" }, "geometry": { "type": "MultiPolygon", "coordinates": [ [ [ [ -10932.163999999989755, -14482.543999999965308, 0.000000000000455 ], [ -10853.115999999979977, -14458.910999999963678, 0.000000000000455 ], [ -10842.114999999961583, -14462.710999999981141, 0.000000000000455 ], [ -10829.426999999966938, -14467.682, 0.000000000000455 ], [ -10835.656999999977415, -14481.443999999988591, 0.000000000000455 ], [ -10844.273999999975786, -14500.434999999997672, 0.000000000000455 ], [ -10855.041999999957625, -14524.12599999998929, 0.000000000000455 ], [ -10866.184000000008382, -14519.057999999960884, 0.000000000000455 ], [ -10916.714000000007218, -14534.178999999974621, 0.000000000000455 ], [ -10932.163999999989755, -14482.543999999965308, 0.000000000000455 ] ] ] ] } },
{ "type": "Feature", "properties": { "OBJECTID": 14, "Shape_Length": 453.19912250395885, "Shape_Area": 6679.7849380001935, "LOT": 675, "NEGERI": "Pulau Pinang", "DAERAH": "Barat Daya", "MUKIM": "Mukim 11", "AREA": 6662.0, "REGISTRATION": "Geran Mukim", "NO_HAKMILIK": "626", "CUKAI": "RM28.00", "SYARAT": "Second Class", "SYARIKAT": "Dynamite Pacific Sdn. Bhd.", "ALAMAT": "Suite 1, 2nd Floor, Wisma Lister Garden, No.123, Jalan Macalister, 10400 Georgetown, Pulau Pinang", "STD_SHEET": "15-C-III" }, "geometry": { "type": "MultiPolygon", "coordinates": [ [ [ [ -10943.295999999972992, -14427.312999999965541, 0.000000000000455 ], [ -10853.115999999979977, -14458.910999999963678, 0.000000000000455 ], [ -10932.163999999989755, -14482.543999999965308, 0.000000000000455 ], [ -11054.217999999993481, -14519.030999999988126, 0.000000000000455 ], [ -11038.72099999996135, -14488.611000000004424, 0.000000000000455 ], [ -11011.716000000014901, -14474.652999999962049, 0.000000000000455 ], [ -10970.951999999990221, -14447.123999999981606, 0.000000000000455 ], [ -10943.295999999972992, -14427.312999999965541, 0.000000000000455 ] ] ] ] } },
{ "type": "Feature", "properties": { "OBJECTID": 15, "Shape_Length": 449.29206314064129, "Shape_Area": 10825.17395000169, "LOT": 645, "NEGERI": "Pulau Pinang", "DAERAH": "Barat Daya", "MUKIM": "Mukim 11", "AREA": 10825.0, "REGISTRATION": "Geran Mukim", "NO_HAKMILIK": "624", "CUKAI": "RM42.00", "SYARAT": "Second Class", "SYARIKAT": "Dynamite Pacific Sdn. Bhd.", "ALAMAT": "Suite 1, 2nd Floor, Wisma Lister Garden, No.123, Jalan Macalister, 10400 Georgetown, Pulau Pinang", "STD_SHEET": "15-C-III" }, "geometry": { "type": "MultiPolygon", "coordinates": [ [ [ [ -10943.295999999972992, -14427.312999999965541, 0.000000000000455 ], [ -10970.951999999990221, -14447.123999999981606, 0.000000000000455 ], [ -11011.716000000014901, -14474.652999999962049, 0.000000000000455 ], [ -11038.72099999996135, -14488.611000000004424, 0.000000000000455 ], [ -11054.217999999993481, -14519.030999999988126, 0.000000000000455 ], [ -11056.799, -14523.497999999992317, 0.000000000000455 ], [ -11098.796000000002095, -14479.958999999973457, 0.000000000000455 ], [ -11113.288999999989755, -14448.122999999992317, 0.000000000000455 ], [ -11015.84599999996135, -14384.222999999969034, 0.000000000000455 ], [ -10993.459000000002561, -14398.031999999948312, 0.000000000000455 ], [ -10943.295999999972992, -14427.312999999965541, 0.000000000000455 ] ] ] ] } },
{ "type": "Feature", "properties": { "OBJECTID": 16, "Shape_Length": 1012.6116548552441, "Shape_Area": 30463.346529001348, "LOT": 649, "NEGERI": "Pulau Pinang", "DAERAH": "Barat Daya", "MUKIM": "Mukim 11", "AREA": 30452.0, "REGISTRATION": "Geran Mukim", "NO_HAKMILIK": "655", "CUKAI": "RM111.00", "SYARAT": "Second Class", "SYARIKAT": "Dynamite Pacific Sdn. Bhd.", "ALAMAT": "Suite 1, 2nd Floor, Wisma Lister Garden, No.123, Jalan Macalister, 10400 Georgetown, Pulau Pinang", "STD_SHEET": "15-C-III" }, "geometry": { "type": "MultiPolygon", "coordinates": [ [ [ [ -11378.744999999995343, -14195.337999999988824, 0.000000000000455 ], [ -11354.953000000008615, -14184.958000000013271, 0.000000000000455 ], [ -11304.225999999995111, -14171.212, 0.000000000000455 ], [ -11292.549, -14201.416999999957625, 0.000000000000455 ], [ -11281.046000000002095, -14195.027000000001863, 0.000000000000455 ], [ -11255.562999999994645, -14209.904999999998836, 0.000000000000455 ], [ -11234.37699999997858, -14222.010999999969499, 0.000000000000455 ], [ -11212.309999999997672, -14263.701, 0.000000000000455 ], [ -11181.342000000004191, -14314.687999999965541, 0.000000000000455 ], [ -11146.611999999993714, -14322.146000000007916, 0.000000000000455 ], [ -11105.619999999995343, -14339.285999999963678, 0.000000000000455 ], [ -11092.375, -14344.143999999971129, 0.000000000000455 ], [ -11065.677999999985332, -14365.116999999969266, 0.000000000000455 ], [ -11015.84599999996135, -14384.222999999969034, 0.000000000000455 ], [ -11113.288999999989755, -14448.122999999992317, 0.000000000000455 ], [ -11113.627999999996973, -14410.795000000012806, 0.000000000000455 ], [ -11136.35299999997369, -14410.059999999997672, 0.000000000000455 ], [ -11221.265999999974156, -14394.965999999956694, 0.000000000000455 ], [ -11207.350999999995111, -14362.342000000004191, 0.000000000000455 ], [ -11259.931000000011409, -14343.14100000000326, 0.000000000000455 ], [ -11298.538999999989755, -14311.472999999969034, 0.000000000000455 ], [ -11310.49100000000908, -14283.901000000012573, 0.000000000000455 ], [ -11319.50099999998929, -14266.87699999997858, 0.000000000000455 ], [ -11331.433999999979278, -14250.972999999969034, 0.000000000000455 ], [ -11351.301999999996042, -14227.612999999983003, 0.000000000000455 ], [ -11378.744999999995343, -14195.337999999988824, 0.000000000000455 ] ] ] ] } },
{ "type": "Feature", "properties": { "OBJECTID": 17, "Shape_Length": 281.24276632900091, "Shape_Area": 4299.4937049999244, "LOT": 646, "NEGERI": "Pulau Pinang", "DAERAH": "Barat Daya", "MUKIM": "Mukim 11", "AREA": 4299.0, "REGISTRATION": "Geran Mukim", "NO_HAKMILIK": "654", "CUKAI": "RM17.00", "SYARAT": "Second Class", "SYARIKAT": "Dynamite Pacific Sdn. Bhd.", "ALAMAT": "Suite 1, 2nd Floor, Wisma Lister Garden, No.123, Jalan Macalister, 10400 Georgetown, Pulau Pinang", "STD_SHEET": "14-D-IV" }, "geometry": { "type": "MultiPolygon", "coordinates": [ [ [ [ -11352.467999999993481, -14097.546000000002095, 0.000000000000455 ], [ -11326.472000000008848, -14110.415999999997439, 0.000000000000455 ], [ -11269.268000000010943, -14136.170000000012806, 0.000000000000455 ], [ -11304.225999999995111, -14171.212, 0.000000000000455 ], [ -11354.953000000008615, -14184.958000000013271, 0.000000000000455 ], [ -11352.467999999993481, -14097.546000000002095, 0.000000000000455 ] ] ] ] } },
{ "type": "Feature", "properties": { "OBJECTID": 18, "Shape_Length": 428.9290448431932, "Shape_Area": 2163.3664354996145, "LOT": 21161, "NEGERI": "Pulau Pinang", "DAERAH": "Barat Daya", "MUKIM": "Mukim 11", "AREA": 2168.0, "REGISTRATION": "Geran Mukim", "NO_HAKMILIK": "1615", "CUKAI": "RM477.00", "SYARAT": "First Grade", "SYARIKAT": "Dynamite Pacific Sdn. Bhd.", "ALAMAT": "Suite 1, 2nd Floor, Wisma Lister Garden, No.123, Jalan Macalister, 10400 Georgetown, Pulau Pinang", "STD_SHEET": "15-C-III" }, "geometry": { "type": "MultiPolygon", "coordinates": [ [ [ [ -11240.326999999990221, -14727.4769999999844, 0.000000000000455 ], [ -11254.560999999986961, -14735.143000000010943, 0.000000000000455 ], [ -11247.519, -14716.081999999965774, 0.000000000000455 ], [ -11239.166999999986729, -14671.794999999983702, 0.000000000000455 ], [ -11232.00700000001234, -14657.899000000004889, 0.000000000000455 ], [ -11220.331999999965774, -14648.937999999965541, 0.000000000000455 ], [ -11195.113000000012107, -14638.768000000010943, 0.000000000000455 ], [ -11178.916999999986729, -14637.630999999993946, 0.000000000000455 ], [ -11169.60299999997369, -14640.647999999957392, 0.000000000000455 ], [ -11159.908999999955995, -14654.684999999997672, 0.000000000000455 ], [ -11158.693, -14676.844000000011874, 0.000000000000455 ], [ -11152.801000000006752, -14702.261999999987893, 0.000000000000455 ], [ -11158.500999999960186, -14715.206999999965774, 0.000000000000455 ], [ -11165.105999999970663, -14706.470999999990454, 0.000000000000455 ], [ -11168.693999999988591, -14662.035000000003492, 0.000000000000455 ], [ -11174.963999999978114, -14652.731, 0.000000000000455 ], [ -11193.223999999987427, -14648.8519999999844, 0.000000000000455 ], [ -11218.198000000003958, -14661.459999999962747, 0.000000000000455 ], [ -11228.709999999991851, -14674.823000000003958, 0.000000000000455 ], [ -11240.326999999990221, -14727.4769999999844, 0.000000000000455 ] ] ] ] } },
{ "type": "Feature", "properties": { "OBJECTID": 19, "Shape_Length": 171.29634332933608, "Shape_Area": 1792.3124595002494, "LOT": 1412, "NEGERI": "Pulau Pinang", "DAERAH": "Timor Laut", "MUKIM": "Georgetown", "AREA": 1793.0, "REGISTRATION": "Geran", "NO_HAKMILIK": "60675", "CUKAI": "RM2313.00", "SYARAT": "First Grade", "SYARIKAT": "Affluent Base Sdn. Bhs.", "ALAMAT": "25-B, Farquhar Street, 10200 Pulau Pinang", "STD_SHEET": "11-B-IV" }, "geometry": { "type": "MultiPolygon", "coordinates": [ [ [ [ -2365.956000000005588, -2066.634000000020023, 0.000000000000455 ], [ -2356.040999999968335, -2078.661999999982072, 0.000000000000455 ], [ -2344.935999999957858, -2090.781999999977415, 0.000000000000455 ], [ -2357.342999999993481, -2101.512999999977183, 0.000000000000455 ], [ -2371.407999999966705, -2113.677999999985332, 0.000000000000455 ], [ -2406.369999999995343, -2077.478999999992084, 0.000000000000455 ], [ -2378.325000000011642, -2054.230999999970663, 0.000000000000455 ], [ -2365.956000000005588, -2066.634000000020023, 0.000000000000455 ] ] ] ] } },
{ "type": "Feature", "properties": { "OBJECTID": 20, "Shape_Length": 153.21836545524204, "Shape_Area": 1316.3646164994427, "LOT": 1032, "NEGERI": "Pulau Pinang", "DAERAH": "Timor Laut", "MUKIM": "Georgetown", "AREA": 1315.0, "REGISTRATION": "Geran", "NO_HAKMILIK": "12154", "CUKAI": "RM1699.00", "SYARAT": "First Grade", "SYARIKAT": "Affluent Base Sdn. Bhs.", "ALAMAT": "25-B, Farquhar Street, 10200 Pulau Pinang", "STD_SHEET": "11-B-IV" }, "geometry": { "type": "MultiPolygon", "coordinates": [ [ [ [ -2406.369999999995343, -2077.478999999992084, 0.000000000000455 ], [ -2371.407999999966705, -2113.677999999985332, 0.000000000000455 ], [ -2385.214000000007218, -2127.61899999997695, 0.000000000000455 ], [ -2388.669999999983702, -2130.573000000003958, 0.000000000000455 ], [ -2389.875999999960186, -2131.604999999981374, 0.000000000000455 ], [ -2405.621999999973923, -2115.50800000000163, 0.000000000000455 ], [ -2424.651999999972759, -2094.739999999961583, 0.000000000000455 ], [ -2425.526999999972759, -2093.784999999974389, 0.000000000000455 ], [ -2406.369999999995343, -2077.478999999992084, 0.000000000000455 ] ] ] ] } },
{ "type": "Feature", "properties": { "OBJECTID": 21, "Shape_Length": 110.20150064061492, "Shape_Area": 697.76453899988496, "LOT": 1413, "NEGERI": "Pulau Pinang", "DAERAH": "Timor Laut", "MUKIM": "Georgetown", "AREA": 697.0, "REGISTRATION": "Geran", "NO_HAKMILIK": "60671", "CUKAI": "RM900.00", "SYARAT": "First Grade", "SYARIKAT": "Affluent Base Sdn. Bhs.", "ALAMAT": "25-B, Farquhar Street, 10200 Pulau Pinang", "STD_SHEET": "11-B-IV" }, "geometry": { "type": "MultiPolygon", "coordinates": [ [ [ [ -2360.679000000003725, -2124.548999999999069, 0.000000000000455 ], [ -2363.904000000009546, -2121.280999999959022, 0.000000000000455 ], [ -2371.407999999966705, -2113.677999999985332, 0.000000000000455 ], [ -2357.342999999993481, -2101.512999999977183, 0.000000000000455 ], [ -2331.593999999982771, -2125.51500000001397, 0.000000000000455 ], [ -2333.810999999957858, -2128.997999999992317, 0.000000000000455 ], [ -2345.948999999964144, -2139.472999999969034, 0.000000000000455 ], [ -2360.679000000003725, -2124.548999999999069, 0.000000000000455 ] ] ] ] } },
{ "type": "Feature", "properties": { "OBJECTID": 22, "Shape_Length": 92.52700871320252, "Shape_Area": 450.71056150091238, "LOT": 1414, "NEGERI": "Pulau Pinang", "DAERAH": "Timor Laut", "MUKIM": "Georgetown", "AREA": 450.0, "REGISTRATION": "Geran", "NO_HAKMILIK": "60672", "CUKAI": "RM581.00", "SYARAT": "First Grade", "SYARIKAT": "Affluent Base Sdn. Bhs.", "ALAMAT": "25-B, Farquhar Street, 10200 Pulau Pinang", "STD_SHEET": "11-B-IV" }, "geometry": { "type": "MultiPolygon", "coordinates": [ [ [ [ -2335.36999999996624, -2102.145999999978812, 0.000000000000455 ], [ -2330.910999999963678, -2107.553999999974621, 0.000000000000455 ], [ -2329.155999999988126, -2111.448999999993248, 0.000000000000455 ], [ -2328.548999999969965, -2114.441999999980908, 0.000000000000455 ], [ -2329.546999999991385, -2122.300999999977648, 0.000000000000455 ], [ -2331.593999999982771, -2125.51500000001397, 0.000000000000455 ], [ -2357.342999999993481, -2101.512999999977183, 0.000000000000455 ], [ -2344.935999999957858, -2090.781999999977415, 0.000000000000455 ], [ -2335.36999999996624, -2102.145999999978812, 0.000000000000455 ] ] ] ] } },
{ "type": "Feature", "properties": { "OBJECTID": 23, "Shape_Length": 221.00224863013841, "Shape_Area": 2793.4072195003332, "LOT": 2447, "NEGERI": "Pulau Pinang", "DAERAH": "Timor Laut", "MUKIM": "Georgetown", "AREA": 2792.0, "REGISTRATION": "Geran", "NO_HAKMILIK": "63947", "CUKAI": "RM1281.00", "SYARAT": "First Grade", "SYARIKAT": "Soaring Profit Sdn. Bhd.", "ALAMAT": "25-B, Farquhar Street, 10200 Pulau Pinangbuh Farquhar", "STD_SHEET": "11-B-III" }, "geometry": { "type": "MultiPolygon", "coordinates": [ [ [ [ -4515.931000000011409, -2384.84099999992759, 0.000000000000455 ], [ -4512.141999999992549, -2347.356999999959953, 0.000000000000455 ], [ -4504.635999999969499, -2345.964000000007218, 0.000000000000455 ], [ -4443.502000000007683, -2334.614999999961583, 0.000000000000455 ], [ -4445.057999999989988, -2375.171999999962281, 0.000000000000455 ], [ -4513.237999999983003, -2387.336000000010245, 0.000000000000455 ], [ -4515.931000000011409, -2384.84099999992759, 0.000000000000455 ] ] ] ] } },
{ "type": "Feature", "properties": { "OBJECTID": 24, "Shape_Length": 368.32543870144787, "Shape_Area": 7054.9343909999734, "LOT": 994, "NEGERI": "Pulau Pinang", "DAERAH": "Barat Daya", "MUKIM": "Mukim 11", "AREA": 7055.0, "REGISTRATION": "Geran Mukim", "NO_HAKMILIK": "196", "CUKAI": "RM50.00", "SYARAT": "First Grade", "SYARIKAT": "Soaring Profit Sdn. Bhd.", "ALAMAT": "25-B, Farquhar Street, 10200 Pulau Pinangbuh Farquhar", "STD_SHEET": "14-D-IV" }, "geometry": { "type": "MultiPolygon", "coordinates": [ [ [ [ -11342.64100000000326, -15301.774000000004889, 0.000000000000455 ], [ -11307.717999999964377, -15262.666999999986729, 0.000000000000455 ], [ -11275.225000000005821, -15226.287000000011176, 0.000000000000455 ], [ -11249.635000000009313, -15203.25099999998929, 0.000000000000455 ], [ -11220.293999999965308, -15254.958000000013271, 0.000000000000455 ], [ -11217.294999999983702, -15260.25099999998929, 0.000000000000455 ], [ -11317.630000000004657, -15335.318, 0.000000000000455 ], [ -11342.64100000000326, -15301.774000000004889, 0.000000000000455 ] ] ] ] } },
{ "type": "Feature", "properties": { "OBJECTID": 25, "Shape_Length": 389.21705112532004, "Shape_Area": 6420.0592089961692, "LOT": 579, "NEGERI": "Pulau Pinang", "DAERAH": "Barat Daya", "MUKIM": "Mukim 1", "AREA": 1.586, "REGISTRATION": "Geran Mukim", "NO_HAKMILIK": "St. Gt. 27447/4396", "CUKAI": "RM10.50", "SYARAT": "Second Class", "SYARIKAT": "Boon Siew Sdn. Bhd.", "ALAMAT": "1, Jalan Penang, George Town, 10450 George Town, Pulau Pinang", "STD_SHEET": "6-B-III" }, "geometry": { "type": "MultiPolygon", "coordinates": [ [ [ [ -15389.600999999980559, 4259.287000000011176, 0.000000000000455 ], [ -15420.8009999999922, 4245.733000000007451, 0.000000000000455 ], [ -15428.42500000000291, 4234.886000000056811, 0.000000000000455 ], [ -15538.154999999998836, 4273.423000000038883, 0.000000000000455 ], [ -15532.828999999997905, 4303.167000000015832, 0.000000000000455 ], [ -15535.115000000005239, 4334.64100000000326, 0.000000000000455 ], [ -15389.600999999980559, 4259.287000000011176, 0.000000000000455 ] ] ] ] } },
{ "type": "Feature", "properties": { "OBJECTID": 26, "Shape_Length": 220.5011636600633, "Shape_Area": 1741.1345950006673, "LOT": 580, "NEGERI": "Pulau Pinang", "DAERAH": "Barat Daya", "MUKIM": "Mukim 1", "AREA": 0.431, "REGISTRATION": "Geran", "NO_HAKMILIK": "580", "CUKAI": "-", "SYARAT": "Second Class", "SYARIKAT": "Boon Siew Sdn. Bhd.", "ALAMAT": "1, Jalan Penang, George Town, 10450 George Town, Pulau Pinang", "STD_SHEET": "6-B-III" }, "geometry": { "type": "MultiPolygon", "coordinates": [ [ [ [ -15376.819000000003143, 4252.671000000031199, 0.000000000000455 ], [ -15356.634999999980209, 4242.205000000016298, 0.000000000000455 ], [ -15360.068999999988591, 4231.959000000002561, 0.000000000000455 ], [ -15327.905999999988126, 4199.583000000013271, 0.000000000000455 ], [ -15417.136999999987893, 4230.934999999997672, 0.000000000000455 ], [ -15412.28599999997823, 4237.513999999995576, 0.000000000000455 ], [ -15376.819000000003143, 4252.671000000031199, 0.000000000000455 ] ] ] ] } },
{ "type": "Feature", "properties": { "OBJECTID": 27, "Shape_Length": 1109.9814017132635, "Shape_Area": 28840.81954650101, "LOT": 1439, "NEGERI": "Pulau Pinang", "DAERAH": "Barat Daya", "MUKIM": "Mukim 9", "AREA": 2.883, "REGISTRATION": "Geran Mukim", "NO_HAKMILIK": "Gt. 169", "CUKAI": "RM66.00", "SYARAT": "First Grade", "SYARIKAT": "Boon Siew Sdn. Bhd.", "ALAMAT": "1, Jalan Penang, George Town, 10450 George Town, Pulau Pinang", "STD_SHEET": "14-D-IV" }, "geometry": { "type": "MultiPolygon", "coordinates": [ [ [ [ -13691.045000000012806, -15490.022999999957392, 0.000000000000455 ], [ -13736.216000000014901, -15459.171999999991385, 0.000000000000455 ], [ -13817.770999999993364, -15431.978999999992084, 0.000000000000455 ], [ -13888.933999999979278, -15386.193, 0.000000000000455 ], [ -13959.767999999996391, -15378.434000000008382, 0.000000000000455 ], [ -14015.361999999979162, -15352.065999999991618, 0.000000000000455 ], [ -14086.799999999988358, -15315.025999999983469, 0.000000000000455 ], [ -14062.285000000003492, -15276.644999999989523, 0.000000000000455 ], [ -14023.596000000005006, -15305.824999999982538, 0.000000000000455 ], [ -13988.035999999992782, -15323.271999999968102, 0.000000000000455 ], [ -13922.146999999968102, -15342.325000000011642, 0.000000000000455 ], [ -13883.794999999983702, -15352.225999999966007, 0.000000000000455 ], [ -13807.370999999984633, -15323.106999999989057, 0.000000000000455 ], [ -13786.613000000012107, -15285.937999999994645, 0.000000000000455 ], [ -13739.563999999983935, -15327.097999999998137, 0.000000000000455 ], [ -13758.852000000013504, -15365.260999999969499, 0.000000000000455 ], [ -13736.495999999984633, -15376.497999999992317, 0.000000000000455 ], [ -13709.826, -15393.981, 0.000000000000455 ], [ -13651.695000000006985, -15422.798000000009779, 0.000000000000455 ], [ -13659.092999999964377, -15430.706999999994878, 0.000000000000455 ], [ -13691.045000000012806, -15490.022999999957392, 0.000000000000455 ] ] ] ] } },
{ "type": "Feature", "properties": { "OBJECTID": 28, "Shape_Length": 191.90205888591782, "Shape_Area": 1754.6801640004087, "LOT": 318, "NEGERI": "Pulau Pinang", "DAERAH": "Barat Daya", "MUKIM": "Mukim 11", "AREA": 0.433, "REGISTRATION": "Geran Mukim", "NO_HAKMILIK": "St. Grant 9317/3193", "CUKAI": "RM5.00", "SYARAT": "Second Class", "SYARIKAT": "Boon Siew Sdn. Bhd.", "ALAMAT": "1, Jalan Penang, George Town, 10450 George Town, Pulau Pinang", "STD_SHEET": "15-C-III" }, "geometry": { "type": "MultiPolygon", "coordinates": [ [ [ [ -9876.328000000008615, -15427.440999999991618, 0.000000000000455 ], [ -9863.928999999974621, -15437.86699999999837, 0.000000000000455 ], [ -9894.137999999977183, -15497.354999999981374, 0.000000000000455 ], [ -9926.277999999962049, -15477.698999999993248, 0.000000000000455 ], [ -9914.717999999993481, -15465.225000000005821, 0.000000000000455 ], [ -9896.540999999997439, -15452.085999999981141, 0.000000000000455 ], [ -9876.328000000008615, -15427.440999999991618, 0.000000000000455 ] ] ] ] } },
{ "type": "Feature", "properties": { "OBJECTID": 29, "Shape_Length": 379.80596798797382, "Shape_Area": 8617.5898764961457, "LOT": 319, "NEGERI": "Pulau Pinang", "DAERAH": "Barat Daya", "MUKIM": "Mukim 11", "AREA": 2.131, "REGISTRATION": "Geran Mukim", "NO_HAKMILIK": "St. Grant 9317/3193", "CUKAI": "RM6.20", "SYARAT": "Second Class", "SYARIKAT": "Boon Siew Sdn. Bhd.", "ALAMAT": "1, Jalan Penang, George Town, 10450 George Town, Pulau Pinang", "STD_SHEET": "15-C-III" }, "geometry": { "type": "MultiPolygon", "coordinates": [ [ [ [ -9876.328000000008615, -15427.440999999991618, 0.000000000000455 ], [ -9896.540999999997439, -15452.085999999981141, 0.000000000000455 ], [ -9914.717999999993481, -15465.225000000005821, 0.000000000000455 ], [ -9926.277999999962049, -15477.698999999993248, 0.000000000000455 ], [ -10014.691999999980908, -15411.671999999991385, 0.000000000000455 ], [ -9978.050999999977648, -15351.089000000007218, 0.000000000000455 ], [ -9913.946999999985565, -15395.341000000014901, 0.000000000000455 ], [ -9876.328000000008615, -15427.440999999991618, 0.000000000000455 ] ] ] ] } },
{ "type": "Feature", "properties": { "OBJECTID": 30, "Shape_Length": 149.88361255280174, "Shape_Area": 1077.0513880004128, "LOT": 320, "NEGERI": "Pulau Pinang", "DAERAH": "Barat Daya", "MUKIM": "Mukim 11", "AREA": 0.266, "REGISTRATION": "Geran Mukim", "NO_HAKMILIK": "Grants 1887 & 1890", "CUKAI": "RM1.00", "SYARAT": "First Grade", "SYARIKAT": "Boon Siew Sdn. Bhd.", "ALAMAT": "1, Jalan Penang, George Town, 10450 George Town, Pulau Pinang", "STD_SHEET": "15-C-III" }, "geometry": { "type": "MultiPolygon", "coordinates": [ [ [ [ -9837.01600000000326, -15387.638999999995576, 0.000000000000455 ], [ -9863.928999999974621, -15437.86699999999837, 0.000000000000455 ], [ -9876.328000000008615, -15427.440999999991618, 0.000000000000455 ], [ -9858.4769999999844, -15377.551999999996042, 0.000000000000455 ], [ -9837.01600000000326, -15387.638999999995576, 0.000000000000455 ] ] ] ] } },
{ "type": "Feature", "properties": { "OBJECTID": 31, "Shape_Length": 327.46428988636058, "Shape_Area": 4931.1457915003321, "LOT": 321, "NEGERI": "Pulau Pinang", "DAERAH": "Barat Daya", "MUKIM": "Mukim 11", "AREA": 1.219, "REGISTRATION": "Geran Mukim", "NO_HAKMILIK": "Grants 1887 & 1890", "CUKAI": "RM2.50", "SYARAT": "First Grade", "SYARIKAT": "Boon Siew Sdn. Bhd.", "ALAMAT": "1, Jalan Penang, George Town, 10450 George Town, Pulau Pinang", "STD_SHEET": "15-C-III" }, "geometry": { "type": "MultiPolygon", "coordinates": [ [ [ [ -9892.498999999981606, -15360.280999999988126, 0.000000000000455 ], [ -9858.4769999999844, -15377.551999999996042, 0.000000000000455 ], [ -9876.328000000008615, -15427.440999999991618, 0.000000000000455 ], [ -9913.946999999985565, -15395.341000000014901, 0.000000000000455 ], [ -9978.050999999977648, -15351.089000000007218, 0.000000000000455 ], [ -9952.136999999958789, -15322.665000000008149, 0.000000000000455 ], [ -9916.092999999964377, -15345.689000000013039, 0.000000000000455 ], [ -9892.498999999981606, -15360.280999999988126, 0.000000000000455 ] ] ] ] } },
{ "type": "Feature", "properties": { "OBJECTID": 32, "Shape_Length": 387.31565539359372, "Shape_Area": 7330.2598165018617, "LOT": 866, "NEGERI": "Pulau Pinang", "DAERAH": "Barat Daya", "MUKIM": "Mukim 11", "AREA": 1.812, "REGISTRATION": "Geran Mukim", "NO_HAKMILIK": "11794/90", "CUKAI": "-", "SYARAT": "Second Class", "SYARIKAT": "Boon Siew Sdn. Bhd.", "ALAMAT": "1, Jalan Penang, George Town, 10450 George Town, Pulau Pinang", "STD_SHEET": "15-C-III" }, "geometry": { "type": "MultiPolygon", "coordinates": [ [ [ [ -9894.137999999977183, -15497.354999999981374, 0.000000000000455 ], [ -9907.027000000001863, -15515.341999999975087, 0.000000000000455 ], [ -9916.421000000002095, -15527.248999999981606, 0.000000000000455 ], [ -9929.36699999999837, -15543.653999999980442, 0.000000000000455 ], [ -9937.225999999995111, -15551.052999999985332, 0.000000000000455 ], [ -9952.36899999997695, -15536.842000000004191, 0.000000000000455 ], [ -9971.671000000002095, -15518.727000000013504, 0.000000000000455 ], [ -10009.350999999995111, -15481.73399999999674, 0.000000000000455 ], [ -10014.691999999980908, -15411.671999999991385, 0.000000000000455 ], [ -9926.277999999962049, -15477.698999999993248, 0.000000000000455 ], [ -9894.137999999977183, -15497.354999999981374, 0.000000000000455 ] ] ] ] } },
{ "type": "Feature", "properties": { "OBJECTID": 33, "Shape_Length": 172.6039742004335, "Shape_Area": 1789.7983420008236, "LOT": 1409, "NEGERI": "Pulau Pinang", "DAERAH": "Barat Daya", "MUKIM": "Mukim 11", "AREA": 0.179, "REGISTRATION": "Geran Mukim", "NO_HAKMILIK": "1034", "CUKAI": "RM5.00", "SYARAT": "First Grade", "SYARIKAT": "Boon Siew Sdn. Bhd.", "ALAMAT": "1, Jalan Penang, George Town, 10450 George Town, Pulau Pinang", "STD_SHEET": "15-C-III" }, "geometry": { "type": "MultiPolygon", "coordinates": [ [ [ [ -9713.793999999994412, -15251.323000000003958, 0.000000000000455 ], [ -9692.315999999991618, -15234.673000000009779, 0.000000000000455 ], [ -9689.260999999998603, -15231.75899999999092, 0.000000000000455 ], [ -9656.496999999973923, -15270.510999999969499, 0.000000000000455 ], [ -9666.904999999969732, -15275.714999999996508, 0.000000000000455 ], [ -9695.211999999999534, -15293.016999999992549, 0.000000000000455 ], [ -9713.793999999994412, -15251.323000000003958, 0.000000000000455 ] ] ] ] } },
{ "type": "Feature", "properties": { "OBJECTID": 34, "Shape_Length": 307.49554433928461, "Shape_Area": 5367.7881285011172, "LOT": 1410, "NEGERI": "Pulau Pinang", "DAERAH": "Barat Daya", "MUKIM": "Mukim 11", "AREA": 0.5364, "REGISTRATION": "Geran Mukim", "NO_HAKMILIK": "1035", "CUKAI": "RM24.00", "SYARAT": "First Grade", "SYARIKAT": "Boon Siew Sdn. Bhd.", "ALAMAT": "1, Jalan Penang, George Town, 10450 George Town, Pulau Pinang", "STD_SHEET": "15-C-III" }, "geometry": { "type": "MultiPolygon", "coordinates": [ [ [ [ -9695.211999999999534, -15293.016999999992549, 0.000000000000455 ], [ -9709.942999999999302, -15302.092000000004191, 0.000000000000455 ], [ -9729.334999999962747, -15316.546000000002095, 0.000000000000455 ], [ -9800.556000000011409, -15242.535999999992782, 0.000000000000455 ], [ -9777.427999999985332, -15208.653999999980442, 0.000000000000455 ], [ -9771.730000000010477, -15212.880000000004657, 0.000000000000455 ], [ -9753.473999999958323, -15224.99299999998766, 0.000000000000455 ], [ -9734.563999999983935, -15237.540999999968335, 0.000000000000455 ], [ -9713.793999999994412, -15251.323000000003958, 0.000000000000455 ], [ -9695.211999999999534, -15293.016999999992549, 0.000000000000455 ] ] ] ] } },
{ "type": "Feature", "properties": { "OBJECTID": 35, "Shape_Length": 647.76857944518611, "Shape_Area": 21532.086231501518, "LOT": 268, "NEGERI": "Pulau Pinang", "DAERAH": "Barat Daya", "MUKIM": "Mukim 12", "AREA": 21525.0, "REGISTRATION": "Geran Mukim", "NO_HAKMILIK": "456", "CUKAI": "RM83.00", "SYARAT": "Second Class", "SYARIKAT": "Boon Siew Sdn. Bhd.", "ALAMAT": "Suite 123K, Tingkat 2, Wisma Lister Garden, Jalan Macalister, 10400 Pulau Pinang", "STD_SHEET": "19-A-II" }, "geometry": { "type": "MultiPolygon", "coordinates": [ [ [ [ -8348.1019999999844, -16676.880000000004657, 0.000000000000455 ], [ -8376.938999999983935, -16625.980000000010477, 0.000000000000455 ], [ -8299.295999999972992, -16596.532999999995809, 0.000000000000455 ], [ -8237.746999999973923, -16601.263999999995576, 0.000000000000455 ], [ -8217.413999999989755, -16620.74900000001071, 0.000000000000455 ], [ -8253.412999999971362, -16682.516999999992549, 0.000000000000455 ], [ -8252.174999999959255, -16696.825000000011642, 0.000000000000455 ], [ -8236.327999999979511, -16792.700000000011642, 0.000000000000455 ], [ -8255.931999999942491, -16803.09599999996135, 0.000000000000455 ], [ -8264.746999999973923, -16802.13200000001234, 0.000000000000455 ], [ -8285.652999999991152, -16815.151000000012573, 0.000000000000455 ], [ -8293.417999999976018, -16820.798000000009779, 0.000000000000455 ], [ -8307.910999999992782, -16789.99900000001071, 0.000000000000455 ], [ -8329.745999999926426, -16760.796000000002095, 0.000000000000455 ], [ -8355.834999999991851, -16741.464000000007218, 0.000000000000455 ], [ -8348.1019999999844, -16676.880000000004657, 0.000000000000455 ] ] ] ] } },
{ "type": "Feature", "properties": { "OBJECTID": 36, "Shape_Length": 389.27748471367522, "Shape_Area": 5637.6616310007776, "LOT": 1453, "NEGERI": "Pulau Pinang", "DAERAH": "Barat Daya", "MUKIM": "Mukim 12", "AREA": 5637.0, "REGISTRATION": "Geran Mukim", "NO_HAKMILIK": "881", "CUKAI": "RM24.00", "SYARAT": "First Grade", "SYARIKAT": "Boon Siew Sdn. Bhd.", "ALAMAT": "Suite 123K, Tingkat 2, Wisma Lister Garden, Jalan Macalister, 10400 Pulau Pinang", "STD_SHEET": "19-A-II" }, "geometry": { "type": "MultiPolygon", "coordinates": [ [ [ [ -7964.081000000005588, -17055.953000000008615, 0.000000000000455 ], [ -7868.739999999990687, -16948.206000000005588, 0.000000000000455 ], [ -7842.09599999996135, -16929.372999999992317, 0.000000000000455 ], [ -7828.442999999970198, -16956.591000000014901, 0.000000000000455 ], [ -7876.271999999997206, -17023.23399999999674, 0.000000000000455 ], [ -7897.39000000001397, -17043.814000000013039, 0.000000000000455 ], [ -7924.533999999985099, -17041.785999999992782, 0.000000000000455 ], [ -7952.60299999997369, -17057.23599999997532, 0.000000000000455 ], [ -7964.081000000005588, -17055.953000000008615, 0.000000000000455 ] ] ] ] } },
{ "type": "Feature", "properties": { "OBJECTID": 37, "Shape_Length": 305.15566271259166, "Shape_Area": 2120.1643860010772, "LOT": 1454, "NEGERI": "Pulau Pinang", "DAERAH": "Barat Daya", "MUKIM": "Mukim 12", "AREA": 2106.0, "REGISTRATION": "Geran Mukim", "NO_HAKMILIK": "882", "CUKAI": "RM15.00", "SYARAT": "First Grade", "SYARIKAT": "Boon Siew Sdn. Bhd.", "ALAMAT": "Suite 123K, Tingkat 2, Wisma Lister Garden, Jalan Macalister, 10400 Pulau Pinang", "STD_SHEET": "19-A-II" }, "geometry": { "type": "MultiPolygon", "coordinates": [ [ [ [ -7987.596999999979744, -16885.36799999998766, 0.000000000000455 ], [ -7970.779000000009546, -16856.497999999992317, 0.000000000000455 ], [ -7948.141999999963446, -16876.892999999981839, 0.000000000000455 ], [ -7923.157000000006519, -16902.319999999977881, 0.000000000000455 ], [ -7905.750999999960186, -16917.100000000005821, 0.000000000000455 ], [ -7868.739999999990687, -16948.206000000005588, 0.000000000000455 ], [ -7987.596999999979744, -16885.36799999998766, 0.000000000000455 ] ] ] ] } },
{ "type": "Feature", "properties": { "OBJECTID": 38, "Shape_Length": 709.39802753093454, "Shape_Area": 25633.140727997241, "LOT": 2016, "NEGERI": "Pulau Pinang", "DAERAH": "Barat Daya", "MUKIM": "Mukim 12", "AREA": 25641.0, "REGISTRATION": "Geran Mukim", "NO_HAKMILIK": "933", "CUKAI": "RN104.00", "SYARAT": "First Grade", "SYARIKAT": "Boon Siew Sdn. Bhd.", "ALAMAT": "Suite 123K, Tingkat 2, Wisma Lister Garden, Jalan Macalister, 10400 Pulau Pinang", "STD_SHEET": "19-A-II" }, "geometry": { "type": "MultiPolygon", "coordinates": [ [ [ [ -8107.00199999997858, -17011.896000000007916, 0.000000000000455 ], [ -8050.848999999958323, -16979.794999999983702, 0.000000000000455 ], [ -8020.725999999995111, -16925.399999999994179, 0.000000000000455 ], [ -7993.592999999964377, -16895.669999999983702, 0.000000000000455 ], [ -7987.596999999979744, -16885.36799999998766, 0.000000000000455 ], [ -7868.739999999990687, -16948.206000000005588, 0.000000000000455 ], [ -7964.081000000005588, -17055.953000000008615, 0.000000000000455 ], [ -7985.565999999991618, -17073.36899999997695, 0.000000000000455 ], [ -7971.195999999996275, -17093.337, 0.000000000000455 ], [ -7975.932999999989988, -17115.763999999966472, 0.000000000000455 ], [ -7991.755999999964843, -17110.092999999993481, 0.000000000000455 ], [ -8007.86699999999837, -17113.206999999994878, 0.000000000000455 ], [ -8045.028999999980442, -17074.217000000004191, 0.000000000000455 ], [ -8085.61899999997695, -17043.167999999976018, 0.000000000000455 ], [ -8101.116999999969266, -17027.36699999999837, 0.000000000000455 ], [ -8107.00199999997858, -17011.896000000007916, 0.000000000000455 ] ] ] ] } },
{ "type": "Feature", "properties": { "OBJECTID": 39, "Shape_Length": 238.81045395881887, "Shape_Area": 2083.3988184994482, "LOT": 1683, "NEGERI": "Pulau Pinang", "DAERAH": "Barat Daya", "MUKIM": "Mukim 12", "AREA": 2084.0, "REGISTRATION": "Geran Mukim", "NO_HAKMILIK": "1190", "CUKAI": "RM15.00", "SYARAT": "Second Class", "SYARIKAT": "Boon Siew Sdn. Bhd.", "ALAMAT": "Suite 123K, Tingkat 2, Wisma Lister Garden, Jalan Macalister, 10400 Pulau Pinang", "STD_SHEET": "19-A-II" }, "geometry": { "type": "MultiPolygon", "coordinates": [ [ [ [ -8217.413999999989755, -16620.74900000001071, 0.000000000000455 ], [ -8132.764999999984866, -16592.942000000010012, 0.000000000000455 ], [ -8126.299999999959255, -16611.540999999997439, 0.000000000000455 ], [ -8147.499999999970896, -16611.480000000010477, 0.000000000000455 ], [ -8153.448999999964144, -16649.648999999975786, 0.000000000000455 ], [ -8217.413999999989755, -16620.74900000001071, 0.000000000000455 ] ] ] ] } },
{ "type": "Feature", "properties": { "OBJECTID": 40, "Shape_Length": 134.54864731660021, "Shape_Area": 1045.8038825001267, "LOT": 106, "NEGERI": "Pulau Pinang", "DAERAH": "Timor Laut", "MUKIM": "Tanjong Tokong", "AREA": 1045.0, "REGISTRATION": "Geran", "NO_HAKMILIK": "30198", "CUKAI": "RM563.00", "SYARAT": "First Grade", "SYARIKAT": "Fortress Hill Sdn. Bhd.", "ALAMAT": "Suit 1, @nd Floor, Wisma Lister Garden, 123, 10400 Pulau Pinang", "STD_SHEET": "7-D-I" }, "geometry": { "type": "MultiPolygon", "coordinates": [ [ [ [ -4290.408999999955995, 2807.311000000016065, 0.000000000000455 ], [ -4266.054999999934807, 2808.573000000033062, 0.000000000000455 ], [ -4263.850000000005821, 2766.018000000040047, 0.000000000000455 ], [ -4284.178999999974621, 2764.50800000000163, 0.000000000000455 ], [ -4288.174999999988358, 2764.211000000039348, 0.000000000000455 ], [ -4290.408999999955995, 2807.311000000016065, 0.000000000000455 ] ] ] ] } },
{ "type": "Feature", "properties": { "OBJECTID": 41, "Shape_Length": 120.53964961424533, "Shape_Area": 857.73323650078248, "LOT": 596, "NEGERI": "Pulau Pinang", "DAERAH": "Timor Laut", "MUKIM": "Tanjong Tokong", "AREA": 857.0, "REGISTRATION": "Geran", "NO_HAKMILIK": "6788", "CUKAI": "RM462.00", "SYARAT": "First Grade", "SYARIKAT": "LPY Property Sdn. Bhd.", "ALAMAT": "347-V, Tingkat Pemancar, 11700 Gelugor Pulau Pinang", "STD_SHEET": "7-D-I" }, "geometry": { "type": "MultiPolygon", "coordinates": [ [ [ [ -4347.424999999959255, 2738.181000000069616, 0.000000000000455 ], [ -4306.419999999983702, 2741.228000000002794, 0.000000000000455 ], [ -4304.33799999995972, 2719.759000000020023, 0.000000000000455 ], [ -4336.1019999999844, 2716.683000000019092, 0.000000000000455 ], [ -4343.71999999997206, 2721.961999999999534, 0.000000000000455 ], [ -4347.10299999997369, 2734.856000000028871, 0.000000000000455 ], [ -4347.424999999959255, 2738.181000000069616, 0.000000000000455 ] ] ] ] } },
{ "type": "Feature", "properties": { "OBJECTID": 42, "Shape_Length": 134.6585069288399, "Shape_Area": 1047.1328685010442, "LOT": 115, "NEGERI": "Pulau Pinang", "DAERAH": "Timor Laut", "MUKIM": "Tanjong Tokong", "AREA": 1047.0, "REGISTRATION": "Geran", "NO_HAKMILIK": "52364", "CUKAI": "RM564.00", "SYARAT": "First Grade", "SYARIKAT": "LPY Property Sdn. Bhd.", "ALAMAT": "347-V, Tingkat Pemancar, 11700 Gelugor Pulau Pinang", "STD_SHEET": "7-D-I" }, "geometry": { "type": "MultiPolygon", "coordinates": [ [ [ [ -4259.852999999944586, 2766.315000000060536, 0.000000000000455 ], [ -4255.740999999979977, 2723.845999999990454, 0.000000000000455 ], [ -4280.011999999987893, 2721.496000000042841, 0.000000000000455 ], [ -4284.178999999974621, 2764.50800000000163, 0.000000000000455 ], [ -4263.850000000005821, 2766.018000000040047, 0.000000000000455 ], [ -4259.852999999944586, 2766.315000000060536, 0.000000000000455 ] ] ] ] } },
{ "type": "Feature", "properties": { "OBJECTID": 43, "Shape_Length": 155.35024596919328, "Shape_Area": 1523.0692635016012, "LOT": 1652, "NEGERI": "Pulau Pinang", "DAERAH": "Timor Laut", "MUKIM": "Tanjong Tokong", "AREA": 1523.0, "REGISTRATION": "Geran", "NO_HAKMILIK": "125402", "CUKAI": "RM823.00", "SYARAT": "First Grade", "SYARIKAT": "United Formula Sdn. Bhd.", "ALAMAT": "Suite 1, Tingkat 2, Wisma Lister Garden, 123, Jalan Macalister, 10400 Pulau Pinang", "STD_SHEET": "7-D-I" }, "geometry": { "type": "MultiPolygon", "coordinates": [ [ [ [ -4314.76300000003539, 2806.048000000038883, 0.000000000000455 ], [ -4312.500999999960186, 2762.402999999991152, 0.000000000000455 ], [ -4349.502000000007683, 2759.652000000001863, 0.000000000000455 ], [ -4350.277999999991152, 2797.368000000016764, 0.000000000000455 ], [ -4335.771000000007916, 2803.132000000041444, 0.000000000000455 ], [ -4314.76300000003539, 2806.048000000038883, 0.000000000000455 ] ] ] ] } },
{ "type": "Feature", "properties": { "OBJECTID": 44, "Shape_Length": 125.37422034073509, "Shape_Area": 886.71784349870654, "LOT": 595, "NEGERI": "Pulau Pinang", "DAERAH": "Timor Laut", "MUKIM": "Tanjong Tokong", "AREA": 886.0, "REGISTRATION": "Geran", "NO_HAKMILIK": "6792", "CUKAI": "RM478.00", "SYARAT": "First Grade", "SYARIKAT": "United Formula Sdn. Bhd.", "ALAMAT": "25-B, Farquhar Street, 10200 Pulau Pinang", "STD_SHEET": "7-D-I" }, "geometry": { "type": "MultiPolygon", "coordinates": [ [ [ [ -4312.500999999960186, 2762.402999999991152, 0.000000000000455 ], [ -4308.502999999967869, 2762.700000000069849, 0.000000000000455 ], [ -4306.419999999983702, 2741.228000000002794, 0.000000000000455 ], [ -4347.424999999959255, 2738.181000000069616, 0.000000000000455 ], [ -4349.502000000007683, 2759.652000000001863, 0.000000000000455 ], [ -4312.500999999960186, 2762.402999999991152, 0.000000000000455 ] ] ] ] } },
{ "type": "Feature", "properties": { "OBJECTID": 45, "Shape_Length": 135.64125966602279, "Shape_Area": 1059.140235000606, "LOT": 105, "NEGERI": "Pulau Pinang", "DAERAH": "Timor Laut", "MUKIM": "Tanjong Tokong", "AREA": 1059.0, "REGISTRATION": "Geran", "NO_HAKMILIK": "30197", "CUKAI": "RM570.00", "SYARAT": "First Grade", "SYARIKAT": "United Formula Sdn. Bhd.", "ALAMAT": "25-B, Farquhar Street, 10200 Pulau Pinang", "STD_SHEET": "7-D-I" }, "geometry": { "type": "MultiPolygon", "coordinates": [ [ [ [ -4314.76300000003539, 2806.048000000038883, 0.000000000000455 ], [ -4290.408999999955995, 2807.311000000016065, 0.000000000000455 ], [ -4288.174999999988358, 2764.211000000039348, 0.000000000000455 ], [ -4308.502999999967869, 2762.700000000069849, 0.000000000000455 ], [ -4312.500999999960186, 2762.402999999991152, 0.000000000000455 ], [ -4314.76300000003539, 2806.048000000038883, 0.000000000000455 ] ] ] ] } },
{ "type": "Feature", "properties": { "OBJECTID": 46, "Shape_Length": 135.2928089462107, "Shape_Area": 1054.8505860010289, "LOT": 94, "NEGERI": "Pulau Pinang", "DAERAH": "Timor Laut", "MUKIM": "Tanjong Tokong", "AREA": 1054.0, "REGISTRATION": "Geran", "NO_HAKMILIK": "17687", "CUKAI": "RM568.00", "SYARAT": "First Grade", "SYARIKAT": "United Formula Sdn. Bhd.", "ALAMAT": "25-B, Farquhar Street, 10200 Pulau Pinang", "STD_SHEET": "7-D-I" }, "geometry": { "type": "MultiPolygon", "coordinates": [ [ [ [ -4254.163999999989755, 2863.859000000025844, 0.000000000000455 ], [ -4229.769999999960419, 2864.363000000012107, 0.000000000000455 ], [ -4227.548999999969965, 2821.546999999991385, 0.000000000000455 ], [ -4251.905999999988126, 2820.28700000004028, 0.000000000000455 ], [ -4254.163999999989755, 2863.859000000025844, 0.000000000000455 ] ] ] ] } },
{ "type": "Feature", "properties": { "OBJECTID": 47, "Shape_Length": 136.42827569809637, "Shape_Area": 1069.2830004989771, "LOT": 93, "NEGERI": "Pulau Pinang", "DAERAH": "Timor Laut", "MUKIM": "Tanjong Tokong", "AREA": 1069.0, "REGISTRATION": "Geran", "NO_HAKMILIK": "30188", "CUKAI": "RM576.00", "SYARAT": "First Grade", "SYARIKAT": "United Formula Sdn. Bhd.", "ALAMAT": "Suite 1, 2nd Floor, Wisma Lister Garden, No.123, Jalan Macalister, 10400 Georgetown, Pulau Pinang", "STD_SHEET": "7-D-I" }, "geometry": { "type": "MultiPolygon", "coordinates": [ [ [ [ -4278.541999999986729, 2862.981999999989057, 0.000000000000455 ], [ -4256.60299999997369, 2863.809000000008382, 0.000000000000455 ], [ -4254.163999999989755, 2863.859000000025844, 0.000000000000455 ], [ -4251.905999999988126, 2820.28700000004028, 0.000000000000455 ], [ -4276.261999999987893, 2819.026000000041677, 0.000000000000455 ], [ -4278.541999999986729, 2862.981999999989057, 0.000000000000455 ] ] ] ] } },
{ "type": "Feature", "properties": { "OBJECTID": 48, "Shape_Length": 137.14956298109442, "Shape_Area": 1077.5721480001962, "LOT": 92, "NEGERI": "Pulau Pinang", "DAERAH": "Timor Laut", "MUKIM": "Tanjong Tokong", "AREA": 1077.0, "REGISTRATION": "Geran", "NO_HAKMILIK": "30187", "CUKAI": "RM580.00", "SYARAT": "First Grade", "SYARIKAT": "United Formula Sdn. Bhd.", "ALAMAT": "Suite 1, 2nd Floor, Wisma Lister Garden, No.123, Jalan Macalister, 10400 Georgetown, Pulau Pinang", "STD_SHEET": "7-D-I" }, "geometry": { "type": "MultiPolygon", "coordinates": [ [ [ [ -4302.913999999989755, 2862.064000000042142, 0.000000000000455 ], [ -4278.541999999986729, 2862.981999999989057, 0.000000000000455 ], [ -4276.261999999987893, 2819.026000000041677, 0.000000000000455 ], [ -4300.61600000000908, 2817.76500000001397, 0.000000000000455 ], [ -4302.913999999989755, 2862.064000000042142, 0.000000000000455 ] ] ] ] } },
{ "type": "Feature", "properties": { "OBJECTID": 49, "Shape_Length": 180.82580105364841, "Shape_Area": 2130.2446299997059, "LOT": 1651, "NEGERI": "Pulau Pinang", "DAERAH": "Timor Laut", "MUKIM": "Tanjong Tokong", "AREA": 2130.0, "REGISTRATION": "Geran", "NO_HAKMILIK": "125401", "CUKAI": "RM1151.00", "SYARAT": "First Grade", "SYARIKAT": "United Formula Sdn. Bhd.", "ALAMAT": "Suite 1, 2nd Floor, Wisma Lister Garden, No.123, Jalan Macalister, 10400 Georgetown, Pulau Pinang", "STD_SHEET": "7-D-I" }, "geometry": { "type": "MultiPolygon", "coordinates": [ [ [ [ -4304.186999999976251, 2862.01600000000326, 0.000000000000455 ], [ -4302.913999999989755, 2862.064000000042142, 0.000000000000455 ], [ -4300.61600000000908, 2817.76500000001397, 0.000000000000455 ], [ -4339.974999999976717, 2815.730000000010477, 0.000000000000455 ], [ -4351.707999999984168, 2822.877000000036787, 0.000000000000455 ], [ -4349.01600000000326, 2859.946000000025379, 0.000000000000455 ], [ -4304.186999999976251, 2862.01600000000326, 0.000000000000455 ] ] ] ] } },
{ "type": "Feature", "properties": { "OBJECTID": 50, "Shape_Length": 135.74677462144621, "Shape_Area": 1060.2709110003789, "LOT": 114, "NEGERI": "Pulau Pinang", "DAERAH": "Timor Laut", "MUKIM": "Tanjong Tokong", "AREA": 1060.0, "REGISTRATION": "Geran", "NO_HAKMILIK": "30203", "CUKAI": "RM571.00", "SYARAT": "First Grade", "SYARIKAT": "United Formula Sdn. Bhd.", "ALAMAT": "Suite 1, 2nd Floor, Wisma Lister Garden, No.123, Jalan Macalister, 10400 Georgetown, Pulau Pinang", "STD_SHEET": "7-D-I" }, "geometry": { "type": "MultiPolygon", "coordinates": [ [ [ [ -4284.178999999974621, 2764.50800000000163, 0.000000000000455 ], [ -4280.011999999987893, 2721.496000000042841, 0.000000000000455 ], [ -4304.283999999955995, 2719.146999999997206, 0.000000000000455 ], [ -4304.33799999995972, 2719.759000000020023, 0.000000000000455 ], [ -4306.419999999983702, 2741.228000000002794, 0.000000000000455 ], [ -4308.502999999967869, 2762.700000000069849, 0.000000000000455 ], [ -4288.174999999988358, 2764.211000000039348, 0.000000000000455 ], [ -4284.178999999974621, 2764.50800000000163, 0.000000000000455 ] ] ] ] } },
{ "type": "Feature", "properties": { "OBJECTID": 51, "Shape_Length": 133.77735914041028, "Shape_Area": 1037.0701574996801, "LOT": 95, "NEGERI": "Pulau Pinang", "DAERAH": "Timor Laut", "MUKIM": "Tanjong Tokong", "AREA": 1036.0, "REGISTRATION": "Geran", "NO_HAKMILIK": "17688", "CUKAI": "RM558.00", "SYARAT": "First Grade", "SYARIKAT": "United Formula Sdn. Bhd.", "ALAMAT": "Suite 1, 2nd Floor, Wisma Lister Garden, No.123, Jalan Macalister, 10400 Georgetown, Pulau Pinang", "STD_SHEET": "7-D-I" }, "geometry": { "type": "MultiPolygon", "coordinates": [ [ [ [ -4229.769999999960419, 2864.363000000012107, 0.000000000000455 ], [ -4206.440999999962514, 2864.845000000001164, 0.000000000000455 ], [ -4205.370999999984633, 2864.85899999999674, 0.000000000000455 ], [ -4203.194999999977881, 2823.413999999989755, 0.000000000000455 ], [ -4203.189999999973224, 2822.807999999989988, 0.000000000000455 ], [ -4227.548999999969965, 2821.546999999991385, 0.000000000000455 ], [ -4229.769999999960419, 2864.363000000012107, 0.000000000000455 ] ] ] ] } },
{ "type": "Feature", "properties": { "OBJECTID": 52, "Shape_Length": 473.74240888976533, "Shape_Area": 11955.895644500737, "LOT": 1145, "NEGERI": "Pulau Pinang", "DAERAH": "Timor Laut", "MUKIM": "Georgetown", "AREA": 11954.0, "REGISTRATION": "Geran", "NO_HAKMILIK": "33698", "CUKAI": "RM6456.00", "SYARAT": "First Grade", "SYARIKAT": "Kah Motor Company Sdn. Bhd.", "ALAMAT": "124-A, Lengkok Sungai Pinang, Kampung Rawa,10150 GeorgeTown, Pulau Pinang", "STD_SHEET": "7-D-IV" }, "geometry": { "type": "MultiPolygon", "coordinates": [ [ [ [ -2189.712999999988824, 701.065999999991618, 0.000000000000455 ], [ -2134.651999999972759, 664.818000000028405, 0.000000000000455 ], [ -2141.308999999979278, 653.775000000023283, 0.000000000000455 ], [ -2175.61999999996624, 604.094000000040978, 0.000000000000455 ], [ -2225.069999999948777, 532.51400000002468, 0.000000000000455 ], [ -2295.372000000003027, 571.587000000028638, 0.000000000000455 ], [ -2189.712999999988824, 701.065999999991618, 0.000000000000455 ] ] ] ] } },
{ "type": "Feature", "properties": { "OBJECTID": 53, "Shape_Length": 534.36770680458665, "Shape_Area": 9005.0744335008985, "LOT": 440, "NEGERI": "Pulau Pinang", "DAERAH": "Timor Laut", "MUKIM": "Georgetown", "AREA": 96931.0, "REGISTRATION": "Geran", "NO_HAKMILIK": "Gt. 1188", "CUKAI": "M970.00", "SYARAT": "First Grade", "SYARIKAT": "Oriental Holdings Bhd.", "ALAMAT": "1st Floor, 25B Lebuh Farquhar, 10200 Pulau Pinang", "STD_SHEET": "7-D-IV" }, "geometry": { "type": "MultiPolygon", "coordinates": [ [ [ [ -2174.478000000002794, 603.377999999996973, 0.000000000000455 ], [ -2140.448999999964144, 652.90300000004936, 0.000000000000455 ], [ -2133.36699999999837, 664.181000000040513, 0.000000000000455 ], [ -2129.921000000002095, 669.683000000019092, 0.000000000000455 ], [ -2123.703000000008615, 678.063000000023749, 0.000000000000455 ], [ -2089.660999999992782, 659.791000000026543, 0.000000000000455 ], [ -2088.113999999972293, 661.019000000000233, 0.000000000000455 ], [ -2086.33799999995972, 661.913000000029569, 0.000000000000455 ], [ -2084.382999999972526, 662.227000000042608, 0.000000000000455 ], [ -2082.410999999963678, 662.10899999999674, 0.000000000000455 ], [ -2080.556000000011409, 661.421999999991385, 0.000000000000455 ], [ -2078.897999999957392, 660.340999999985797, 0.000000000000455 ], [ -2077.615999999979977, 658.836000000039348, 0.000000000000455 ], [ -2076.798999999999069, 657.035000000003492, 0.000000000000455 ], [ -2076.441999999980908, 655.073000000003958, 0.000000000000455 ], [ -2076.49900000001071, 653.099000000016531, 0.000000000000455 ], [ -2045.940999999991618, 636.347999999998137, 0.000000000000455 ], [ -2065.704999999987194, 610.644000000000233, 0.000000000000455 ], [ -2064.604999999981374, 609.838000000017928, 0.000000000000455 ], [ -2090.705999999976484, 575.351000000024214, 0.000000000000455 ], [ -2103.151999999972759, 558.76500000001397, 0.000000000000455 ], [ -2136.302999999985332, 579.499000000039814, 0.000000000000455 ], [ -2181.006999999983236, 508.252999999996973, 0.000000000000455 ], [ -2190.638999999995576, 513.559000000037486, 0.000000000000455 ], [ -2145.61099999997532, 585.321000000025379, 0.000000000000455 ], [ -2174.478000000002794, 603.377999999996973, 0.000000000000455 ] ] ] ] } },
{ "type": "Feature", "properties": { "OBJECTID": 54, "Shape_Length": 475.46670490479556, "Shape_Area": 11721.428192999751, "LOT": 1065, "NEGERI": "Pulau Pinang", "DAERAH": "Timor Laut", "MUKIM": "Georgetown", "AREA": 11724.0, "REGISTRATION": "Geran", "NO_HAKMILIK": "4913", "CUKAI": "RM6311.00", "SYARAT": "First Grade", "SYARIKAT": "Northam One Sdn. Bhd.", "ALAMAT": "Suite 1, 2nd Floor, Wisma Lister Garden, No.123, Jalan Macalister, 10400 Georgetown, Pulau Pinang", "STD_SHEET": "7-D-IV" }, "geometry": { "type": "MultiPolygon", "coordinates": [ [ [ [ -2004.035000000003492, 576.502999999996973, 0.000000000000455 ], [ -1994.272999999986496, 590.92000000004191, 0.000000000000455 ], [ -1931.668999999994412, 560.136999999987893, 0.000000000000455 ], [ -1975.415000000008149, 493.470000000001164, 0.000000000000455 ], [ -2024.10899999999674, 418.615000000019791, 0.000000000000455 ], [ -2047.026000000012573, 433.728000000031898, 0.000000000000455 ], [ -2057.015999999974156, 439.850000000005821, 0.000000000000455 ], [ -2086.86899999997695, 456.24199999999837, 0.000000000000455 ], [ -2079.85899999999674, 466.302000000025146, 0.000000000000455 ], [ -2056.099999999976717, 500.39700000002631, 0.000000000000455 ], [ -2051.214999999996508, 507.550000000017462, 0.000000000000455 ], [ -2005.649999999965075, 574.075000000040745, 0.000000000000455 ], [ -2004.035000000003492, 576.502999999996973, 0.000000000000455 ] ] ] ] } },
{ "type": "Feature", "properties": { "OBJECTID": 55, "Shape_Length": 362.85503849417341, "Shape_Area": 8162.0546184978612, "LOT": 1063, "NEGERI": "Pulau Pinang", "DAERAH": "Timor Laut", "MUKIM": "Georgetown", "AREA": 8170.0, "REGISTRATION": "Geran", "NO_HAKMILIK": "33693", "CUKAI": "RM4412.00", "SYARAT": "First Grade", "SYARIKAT": "Setia Sevania Sdn. Bhd.", "ALAMAT": "Level 6, 33B Jalan Pahang, 10400 Georgetown Pulau Pinang", "STD_SHEET": "7-D-IV" }, "geometry": { "type": "MultiPolygon", "coordinates": [ [ [ [ -1921.464000000007218, 577.839999999996508, 0.000000000000455 ], [ -1919.755000000004657, 579.094000000040978, 0.000000000000455 ], [ -1917.579999999987194, 578.934999999997672, 0.000000000000455 ], [ -1887.909000000014203, 564.690999999991618, 0.000000000000455 ], [ -1861.85999999998603, 552.372000000003027, 0.000000000000455 ], [ -1860.228999999992084, 551.269000000000233, 0.000000000000455 ], [ -1859.159000000014203, 550.046999999962281, 0.000000000000455 ], [ -1858.991999999969266, 548.464000000036322, 0.000000000000455 ], [ -1859.420000000012806, 545.134000000020023, 0.000000000000455 ], [ -1860.113000000012107, 542.581000000005588, 0.000000000000455 ], [ -1878.398999999975786, 505.340000000025611, 0.000000000000455 ], [ -1893.208999999973457, 473.717000000004191, 0.000000000000455 ], [ -1895.635999999998603, 468.977000000042608, 0.000000000000455 ], [ -1908.506999999954132, 449.26500000001397, 0.000000000000455 ], [ -1911.731999999959953, 451.421000000031199, 0.000000000000455 ], [ -1969.696999999956461, 489.693999999988591, 0.000000000000455 ], [ -1975.415000000008149, 493.470000000001164, 0.000000000000455 ], [ -1931.668999999994412, 560.136999999987893, 0.000000000000455 ], [ -1921.464000000007218, 577.839999999996508, 0.000000000000455 ] ] ] ] } },
{ "type": "Feature", "properties": { "OBJECTID": 56, "Shape_Length": 141.37881537981127, "Shape_Area": 1231.206966000381, "LOT": 1061, "NEGERI": "Pulau Pinang", "DAERAH": "Timor Laut", "MUKIM": "Georgetown", "AREA": 1230.0, "REGISTRATION": "Geran", "NO_HAKMILIK": "7153", "CUKAI": "RM663.00", "SYARAT": "First Grade", "SYARIKAT": "Prestige Global Equity Sdn. Bhd.", "ALAMAT": "50, Jalan Khaw Sim Bee, 10400 Pulau Pinang", "STD_SHEET": "7-D-IV" }, "geometry": { "type": "MultiPolygon", "coordinates": [ [ [ [ -1978.760999999969499, 352.390000000043074, 0.000000000000455 ], [ -1971.119000000006054, 346.823999999993248, 0.000000000000455 ], [ -1962.812000000005355, 343.332000000023982, 0.000000000000455 ], [ -1959.038999999960652, 340.363000000012107, 0.000000000000455 ], [ -1957.453999999968801, 335.896000000007916, 0.000000000000455 ], [ -1958.323999999964144, 331.341000000044005, 0.000000000000455 ], [ -1973.353999999992084, 299.616000000038184, 0.000000000000455 ], [ -2000.083000000013271, 315.702000000019325, 0.000000000000455 ], [ -1978.760999999969499, 352.390000000043074, 0.000000000000455 ] ] ] ] } },
{ "type": "Feature", "properties": { "OBJECTID": 57, "Shape_Length": 237.82274001828799, "Shape_Area": 2964.244380001368, "LOT": 442, "NEGERI": "Pulau Pinang", "DAERAH": "Timor Laut", "MUKIM": "Georgetown", "AREA": 2964.0, "REGISTRATION": "Geran", "NO_HAKMILIK": "6001", "CUKAI": "RM1596.00", "SYARAT": "First Grade", "SYARIKAT": "Tiara Peninsular Development Sdn. Bhd.", "ALAMAT": "Suite 1, 2nd Floor, Wisma Lister Garden, No.123, Jalan Macalister, 10400 Georgetown, Pulau Pinang", "STD_SHEET": "7-D-IV" }, "geometry": { "type": "MultiPolygon", "coordinates": [ [ [ [ -2181.006999999983236, 508.252999999996973, 0.000000000000455 ], [ -2136.302999999985332, 579.499000000039814, 0.000000000000455 ], [ -2103.151999999972759, 558.76500000001397, 0.000000000000455 ], [ -2152.413999999989755, 493.118000000016764, 0.000000000000455 ], [ -2153.262000000016997, 492.969000000011874, 0.000000000000455 ], [ -2181.006999999983236, 508.252999999996973, 0.000000000000455 ] ] ] ] } },
{ "type": "Feature", "properties": { "OBJECTID": 58, "Shape_Length": 965.22736001331953, "Shape_Area": 40944.310598997035, "LOT": 215, "NEGERI": "Pulau Pinang", "DAERAH": "Timor Laut", "MUKIM": "Bandar Bukit Jambul", "AREA": 40949.0, "REGISTRATION": "Geran", "NO_HAKMILIK": "63966", "CUKAI": "RM176.00", "SYARAT": "Second Class", "SYARIKAT": "Fabulous Home Sdn. Bhd.", "ALAMAT": "25-B, Farquhar Street, 10200 Pulau Pinang", "STD_SHEET": "11-D-III" }, "geometry": { "type": "MultiPolygon", "coordinates": [ [ [ [ -5000.895999999978812, -6600.442999999970198, 0.000000000000455 ], [ -5009.230000000010477, -6615.814000000013039, 0.000000000000455 ], [ -5012.027999999962049, -6624.440999999962514, 0.000000000000455 ], [ -5018.502999999996973, -6644.345000000001164, 0.000000000000455 ], [ -5027.894000000000233, -6673.294999999983702, 0.000000000000455 ], [ -5032.623999999981606, -6672.433999999979278, 0.000000000000455 ], [ -5044.756999999983236, -6670.224999999976717, 0.000000000000455 ], [ -5056.847999999969034, -6668.022999999986496, 0.000000000000455 ], [ -5068.938999999983935, -6665.823000000003958, 0.000000000000455 ], [ -5081.165999999997439, -6663.596999999979744, 0.000000000000455 ], [ -5092.25800000000163, -6661.571999999956461, 0.000000000000455 ], [ -5099.098999999987427, -6660.323000000003958, 0.000000000000455 ], [ -5103.967999999993481, -6659.163000000000466, 0.000000000000455 ], [ -5114.358000000007451, -6656.690999999991618, 0.000000000000455 ], [ -5124.746999999973923, -6654.219000000011874, 0.000000000000455 ], [ -5135.134999999980209, -6651.747999999992317, 0.000000000000455 ], [ -5138.722999999998137, -6650.893999999971129, 0.000000000000455 ], [ -5145.608000000007451, -6649.584999999962747, 0.000000000000455 ], [ -5155.421000000002095, -6647.719000000011874, 0.000000000000455 ], [ -5156.098999999958323, -6647.442999999970198, 0.000000000000455 ], [ -5166.024999999965075, -6643.370999999984633, 0.000000000000455 ], [ -5175.949999999982538, -6639.298999999969965, 0.000000000000455 ], [ -5186.100000000005821, -6635.134999999980209, 0.000000000000455 ], [ -5212.400999999983469, -6627.448000000003958, 0.000000000000455 ], [ -5264.135000000009313, -6612.076999999961117, 0.000000000000455 ], [ -5300.347999999998137, -6595.095999999990454, 0.000000000000455 ], [ -5309.678999999974621, -6590.720999999990454, 0.000000000000455 ], [ -5367.130999999964843, -6562.153999999980442, 0.000000000000455 ], [ -5322.480000000010477, -6537.600999999995111, 0.000000000000455 ], [ -5301.051999999996042, -6512.785999999992782, 0.000000000000455 ], [ -5297.297999999980675, -6488.740999999979977, 0.000000000000455 ], [ -5275.002999999967869, -6448.018999999971129, 0.000000000000455 ], [ -5255.862999999983003, -6444.679999999993015, 0.000000000000455 ], [ -5222.559999999997672, -6451.114000000001397, 0.000000000000455 ], [ -5173.638999999966472, -6500.371000000013737, 0.000000000000455 ], [ -5120.75199999997858, -6547.609999999956926, 0.000000000000455 ], [ -5086.435999999986961, -6572.293999999994412, 0.000000000000455 ], [ -5051.478000000002794, -6549.018000000010943, 0.000000000000455 ], [ -5023.533999999985099, -6552.228000000002794, 0.000000000000455 ], [ -4989.415000000008149, -6579.26500000001397, 0.000000000000455 ], [ -5000.895999999978812, -6600.442999999970198, 0.000000000000455 ] ] ] ] } },
{ "type": "Feature", "properties": { "OBJECTID": 59, "Shape_Length": 1246.7343984113108, "Shape_Area": 48336.529717995494, "LOT": 6085, "NEGERI": "Pulau Pinang", "DAERAH": "Timor Laut", "MUKIM": "Bandar Bukit Jambul", "AREA": 4.834, "REGISTRATION": "Geran", "NO_HAKMILIK": "St. Gt. 2731/6522", "CUKAI": "RM84.40", "SYARAT": "Second Class", "SYARIKAT": "Boon Siew Sdn. Bhd.", "ALAMAT": "Suite 123K, Tingkat 2, Wisma Lister Garden, Jalan Macalister, 10400 Pulau Pinang", "STD_SHEET": "11-C-II" }, "geometry": { "type": "MultiPolygon", "coordinates": [ [ [ [ -6429.684000000008382, -4906.345999999990454, 0.000000000000455 ], [ -6400.315000000002328, -4909.817999999970198, 0.000000000000455 ], [ -6370.700000000011642, -4915.543000000005122, 0.000000000000455 ], [ -6342.831000000005588, -4930.230999999999767, 0.000000000000455 ], [ -6297.839999999967404, -4942.799999999959255, 0.000000000000455 ], [ -6283.994000000006054, -4939.37599999998929, 0.000000000000455 ], [ -6271.146000000007916, -4931.082999999984168, 0.000000000000455 ], [ -6256.779999999969732, -4959.644999999960419, 0.000000000000455 ], [ -6245.00199999997858, -4973.217999999993481, 0.000000000000455 ], [ -6236.341999999975087, -4987.687999999965541, 0.000000000000455 ], [ -6227.423000000009779, -5000.185999999986961, 0.000000000000455 ], [ -6202.283000000024913, -5011.714999999967404, 0.000000000000455 ], [ -6177.317999999999302, -5019.387999999977183, 0.000000000000455 ], [ -6170.11799999998766, -5018.72099999996135, 0.000000000000455 ], [ -6177.774000000004889, -5048.614999999961583, 0.000000000000455 ], [ -6204.067000000010012, -5054.61699999999837, 0.000000000000455 ], [ -6223.232999999978347, -5086.46299999995972, 0.000000000000455 ], [ -6240.521999999997206, -5098.730999999999767, 0.000000000000455 ], [ -6245.63300000000163, -5107.452999999979511, 0.000000000000455 ], [ -6267.059999999968568, -5119.898999999975786, 0.000000000000455 ], [ -6287.078999999968801, -5141.168000000005122, 0.000000000000455 ], [ -6264.776000000012573, -5123.214999999967404, 0.000000000000455 ], [ -6242.686999999976251, -5110.394000000000233, 0.000000000000455 ], [ -6237.48599999997532, -5101.50199999997858, 0.000000000000455 ], [ -6220.217999999964377, -5089.252999999996973, 0.000000000000455 ], [ -6201.494000000006054, -5058.142999999981839, 0.000000000000455 ], [ -6174.469000000011874, -5051.96999999997206, 0.000000000000455 ], [ -6197.451000000000931, -5072.062000000005355, 0.000000000000455 ], [ -6194.948999999993248, -5098.917999999976018, 0.000000000000455 ], [ -6208.233000000007451, -5126.030999999959022, 0.000000000000455 ], [ -6254.200000000011642, -5183.801999999996042, 0.000000000000455 ], [ -6262.812999999965541, -5202.277999999991152, 0.000000000000455 ], [ -6298.132999999972526, -5191.535000000003492, 0.000000000000455 ], [ -6337.210999999981141, -5189.772999999986496, 0.000000000000455 ], [ -6368.532999999995809, -5192.584999999991851, 0.000000000000455 ], [ -6361.822999999974854, -5172.559999999968568, 0.000000000000455 ], [ -6376.513999999995576, -5148.172999999980675, 0.000000000000455 ], [ -6371.266999999992549, -5142.649000000004889, 0.000000000000455 ], [ -6370.652000000001863, -5113.125, 0.000000000000455 ], [ -6385.48599999997532, -5096.581999999965774, 0.000000000000455 ], [ -6393.488999999972293, -5076.045999999972992, 0.000000000000455 ], [ -6404.383999999961816, -5037.609999999956926, 0.000000000000455 ], [ -6430.478000000002794, -5004.508999999961816, 0.000000000000455 ], [ -6436.815999999962514, -4985.878999999957159, 0.000000000000455 ], [ -6434.939000000013039, -4959.415000000008149, 0.000000000000455 ], [ -6441.023999999975786, -4934.023999999975786, 0.000000000000455 ], [ -6431.677999999985332, -4923.268999999971129, 0.000000000000455 ], [ -6429.684000000008382, -4906.345999999990454, 0.000000000000455 ] ] ] ] } },
{ "type": "Feature", "properties": { "OBJECTID": 60, "Shape_Length": 939.77415711302183, "Shape_Area": 37669.747902500036, "LOT": 528, "NEGERI": "Pulau Pinang", "DAERAH": "Timor Laut", "MUKIM": "Bandar Puncak Penara", "AREA": 37.669, "REGISTRATION": "Geran Mukim", "NO_HAKMILIK": "Ind. 51 & 191", "CUKAI": "RM61.00", "SYARAT": "First Grade", "SYARIKAT": "Boon Siew Sdn. Bhd.", "ALAMAT": "Suite 123K, Tingkat 2, Wisma Lister Garden, Jalan Macalister, 10400 Pulau Pinang", "STD_SHEET": "11-C-II" }, "geometry": { "type": "MultiPolygon", "coordinates": [ [ [ [ -8154.959000000002561, -4874.250999999960186, 0.000000000000455 ], [ -8143.706999999994878, -4877.614999999961583, 0.000000000000455 ], [ -8134.676000000006752, -4876.821999999985565, 0.000000000000455 ], [ -8112.541999999986729, -4886.933999999979278, 0.000000000000455 ], [ -8045.758999999961816, -4898.424999999988358, 0.000000000000455 ], [ -8019.934000000008382, -4915.347999999998137, 0.000000000000455 ], [ -8005.015999999974156, -4922.481999999989057, 0.000000000000455 ], [ -8025.60399999996298, -4938.140999999974156, 0.000000000000455 ], [ -8050.270999999978812, -4964.299999999988358, 0.000000000000455 ], [ -8053.240999999979977, -4995.642999999981839, 0.000000000000455 ], [ -8034.929999999963911, -5042.684999999968568, 0.000000000000455 ], [ -8213.027000000001863, -5163.429999999993015, 0.000000000000455 ], [ -8241.420999999972992, -5197.473999999958323, 0.000000000000455 ], [ -8210.594000000011874, -5125.944999999977881, 0.000000000000455 ], [ -8227.159999999974389, -5075.394999999989523, 0.000000000000455 ], [ -8221.318999999959487, -5050.699999999982538, 0.000000000000455 ], [ -8228.61799999998766, -5020.927999999985332, 0.000000000000455 ], [ -8217.051999999966938, -4977.144999999989523, 0.000000000000455 ], [ -8224.586999999970431, -4951.788999999989755, 0.000000000000455 ], [ -8221.649999999994179, -4945.436999999976251, 0.000000000000455 ], [ -8178.320000000006985, -4933.717000000004191, 0.000000000000455 ], [ -8167.910999999992782, -4910.787000000011176, 0.000000000000455 ], [ -8157.925999999948544, -4874.949999999982538, 0.000000000000455 ], [ -8154.959000000002561, -4874.250999999960186, 0.000000000000455 ] ] ] ] } },
{ "type": "Feature", "properties": { "OBJECTID": 0, "Shape_Length": null, "Shape_Area": null, "LOT": null, "NEGERI": null, "DAERAH": null, "MUKIM": null, "AREA": null, "REGISTRATION": null, "NO_HAKMILIK": null, "CUKAI": null, "SYARAT": null, "SYARIKAT": null, "ALAMAT": null, "STD_SHEET": null }, "geometry": { "type": "MultiPolygon", "coordinates": [ [ [ [ -2279.381095272927269, 964.394208114778735, 0.0 ], [ -2028.941522188971703, 889.655696775587785, 0.0 ], [ -2276.758691366288986, 821.473195202992542, 0.0 ], [ -2279.381095272927269, 964.394208114778735, 0.0 ] ] ] ] } }
]
}
