{
"type": "FeatureCollection",
"name": "boonsiew1",
"crs": { "type": "name", "properties": { "name": "urn:ogc:def:crs:OGC:1.3:CRS84" } },
"features": [
{ "type": "Feature", "properties": { "OBJECTID": 1, "LOT": 1411, "NEGERI": "Pulau Pinang", "DAERAH": "Barat Daya", "MUKIM": "Mukim 11", "REGISTRATION": "Geran Mukim", "NO_HAKMILIK": "1030", "CUKAI": "RM27.00", "SYARAT": "First Grade", "SYARIKAT": "Boon Siew Sdn. Bhd.", "ALAMAT": "1, Jalan Penang, George Town, 10450 George Town, Pulau Pinang", "STD_SHEET": "15-C-III", "AREA": "0.8818 Ha" }, "geometry": { "type": "Polygon", "coordinates": [ [ [ 100.256817798011667, 5.282442082822529 ], [ 100.256771442705144, 5.282408617499195 ], [ 100.256647911241203, 5.282308910965467 ], [ 100.256560264408705, 5.282221806264142 ], [ 100.256422006997752, 5.282082281650048 ], [ 100.25617679218368, 5.282340232172383 ], [ 100.255846476180935, 5.281799057156968 ], [ 100.255652859192097, 5.28189024539931 ], [ 100.255692805998706, 5.282010720812764 ], [ 100.255687940186306, 5.282224892502863 ], [ 100.255715595373431, 5.282442324285667 ], [ 100.255776194493805, 5.282480195619104 ], [ 100.255830817650335, 5.282672853658751 ], [ 100.256175203686865, 5.28311125795385 ], [ 100.256817798011667, 5.282442082822529 ] ] ] } },
{ "type": "Feature", "properties": { "OBJECTID": 2, "LOT": 1412, "NEGERI": "Pulau Pinang", "DAERAH": "Barat Daya", "MUKIM": "Mukim 11", "REGISTRATION": "Geran Mukim", "NO_HAKMILIK": "1031", "CUKAI": "RM10.00", "SYARAT": "Second Class", "SYARIKAT": "Boon Siew Sdn. Bhd.", "ALAMAT": "1, Jalan Penang, George Town, 10450 George Town, Pulau Pinang", "STD_SHEET": "15-C-III", "AREA": "0.7267 Ha" }, "geometry": { "type": "Polygon", "coordinates": [ [ [ 100.256422006997752, 5.282082281650048 ], [ 100.25633906308444, 5.281975274129034 ], [ 100.256231350975824, 5.281839949715692 ], [ 100.25617662388558, 5.28168015364243 ], [ 100.256122833914461, 5.281528225032968 ], [ 100.256015301428903, 5.281399420549296 ], [ 100.25596925604151, 5.281344225087 ], [ 100.255925049345095, 5.281173325789204 ], [ 100.25550386272765, 5.280702753758152 ], [ 100.255360204708509, 5.280545603496589 ], [ 100.255130328200593, 5.280536473333691 ], [ 100.255215057817267, 5.280644159489435 ], [ 100.255331308665674, 5.280806831075616 ], [ 100.255603753194237, 5.281344814989625 ], [ 100.255846476180935, 5.281799057156968 ], [ 100.25617679218368, 5.282340232172383 ], [ 100.256422006997752, 5.282082281650048 ] ] ] } },
{ "type": "Feature", "properties": { "OBJECTID": 3, "LOT": 10008, "NEGERI": "Pulau Pinang", "DAERAH": "Barat Daya", "MUKIM": "Mukim 1", "REGISTRATION": "Geran Mukim", "NO_HAKMILIK": "578", "CUKAI": "RM17.00", "SYARAT": "First Grade", "SYARIKAT": "Major Income Sdn. Bhd.", "ALAMAT": "Suite 1, 2nd Floor, Wisma Lister Garden, No.123, Jalan Macalister, 10400 Georgetown, Pulau Pinang", "STD_SHEET": "14-B-III", "AREA": "8325 Msq" }, "geometry": { "type": "Polygon", "coordinates": [ [ [ 100.205905837576509, 5.321737252962949 ], [ 100.20563919056876, 5.321774024675849 ], [ 100.20514861347452, 5.321932833744471 ], [ 100.205154750215556, 5.321964385763949 ], [ 100.205263231161879, 5.322754071328029 ], [ 100.2055399549496, 5.322721814461613 ], [ 100.205977349679031, 5.322721831470851 ], [ 100.205929689800499, 5.322066157179814 ], [ 100.205905837576509, 5.321737252962949 ] ] ] } },
{ "type": "Feature", "properties": { "OBJECTID": 4, "LOT": 530, "NEGERI": "Pulau Pinang", "DAERAH": "Timor Laut", "MUKIM": "Georgetown", "REGISTRATION": "Geran", "NO_HAKMILIK": "Gt. 2228, 2233", "CUKAI": "RM814.00", "SYARAT": "First Grade", "SYARIKAT": "Boon Siew Sdn. Bhd.", "ALAMAT": "1, Jalan Penang, George Town, 10450 George Town, Pulau Pinang", "STD_SHEET": "7-D-III", "AREA": "27110 Msq" }, "geometry": { "type": "Polygon", "coordinates": [ [ [ 100.308598260380208, 5.424794239205901 ], [ 100.309009495674431, 5.42466535712127 ], [ 100.309036667834647, 5.424613533956018 ], [ 100.308941544168718, 5.424305654445609 ], [ 100.308892379018644, 5.42425837537815 ], [ 100.308444824996712, 5.424391116540188 ], [ 100.308594362918498, 5.42478400243357 ], [ 100.308598260380208, 5.424794239205901 ] ] ] } },
{ "type": "Feature", "properties": { "OBJECTID": 5, "LOT": 20001, "NEGERI": "Pulau Pinang", "DAERAH": "Barat Daya", "MUKIM": "Mukim 11", "REGISTRATION": "Geran Mukim", "NO_HAKMILIK": "1392", "CUKAI": "RM16.00", "SYARAT": "First Grade", "SYARIKAT": "Dynamite Pacific Sdn. Bhd.", "ALAMAT": "Suite 1, 2nd Floor, Wisma Lister Garden, No.123, Jalan Macalister, 10400 Georgetown, Pulau Pinang", "STD_SHEET": "15-C-III", "AREA": "1298 Msq" }, "geometry": { "type": "Polygon", "coordinates": [ [ [ 100.243235827406167, 5.288697305679321 ], [ 100.243590146914642, 5.288704425879903 ], [ 100.243981188000333, 5.288457364680667 ], [ 100.244023931536887, 5.288117385325967 ], [ 100.243975515920482, 5.287995054050688 ], [ 100.243922325417401, 5.288224898114954 ], [ 100.243911323215983, 5.288425278166098 ], [ 100.243823850270502, 5.288552199309838 ], [ 100.243739821478414, 5.28857946813693 ], [ 100.243592081421866, 5.288568466051468 ], [ 100.24336622090874, 5.288477159218795 ], [ 100.243235827406167, 5.288697305679321 ] ] ] } },
{ "type": "Feature", "properties": { "OBJECTID": 6, "LOT": 1063, "NEGERI": "Pulau Pinang", "DAERAH": "Barat Daya", "MUKIM": "Mukim 11", "REGISTRATION": "Geran Mukim", "NO_HAKMILIK": "1168", "CUKAI": "RM16.00", "SYARAT": "First Grade", "SYARIKAT": "Dynamite Pacific Sdn. Bhd.", "ALAMAT": "Suite 1, 2nd Floor, Wisma Lister Garden, No.123, Jalan Macalister, 10400 Georgetown, Pulau Pinang", "STD_SHEET": "15-C-III", "AREA": "0.2397 Ha" }, "geometry": { "type": "Polygon", "coordinates": [ [ [ 100.243787865737687, 5.287090153920824 ], [ 100.243776675881662, 5.287055761919789 ], [ 100.243764131278212, 5.286863353890493 ], [ 100.242685343428647, 5.287174633874194 ], [ 100.242993132656963, 5.287278198443894 ], [ 100.243787865737687, 5.287090153920824 ] ] ] } },
{ "type": "Feature", "properties": { "OBJECTID": 7, "LOT": 1058, "NEGERI": "Pulau Pinang", "DAERAH": "Barat Daya", "MUKIM": "Mukim 11", "REGISTRATION": "Geran Mukim", "NO_HAKMILIK": "1163", "CUKAI": "RM20.00", "SYARAT": "First Grade", "SYARIKAT": "Dynamite Pacific Sdn. Bhd.", "ALAMAT": "Suite 1, 2nd Floor, Wisma Lister Garden, No.123, Jalan Macalister, 10400 Georgetown, Pulau Pinang", "STD_SHEET": "15-C-III", "AREA": "4338 Msq" }, "geometry": { "type": "Polygon", "coordinates": [ [ [ 100.243185955370521, 5.287766908765945 ], [ 100.243290678441085, 5.288243071199813 ], [ 100.24338549071237, 5.288363927045627 ], [ 100.243610770146717, 5.288477976693754 ], [ 100.243775504723402, 5.288442925993453 ], [ 100.243832081838477, 5.288358799938618 ], [ 100.243864515065454, 5.287956974464466 ], [ 100.243924113427312, 5.287877985261198 ], [ 100.243185955370521, 5.287766908765945 ] ] ] } },
{ "type": "Feature", "properties": { "OBJECTID": 8, "LOT": 672, "NEGERI": "Pulau Pinang", "DAERAH": "Barat Daya", "MUKIM": "Mukim 11", "REGISTRATION": "Geran Mukim", "NO_HAKMILIK": "325", "CUKAI": "RM16.00", "SYARAT": "Second Class", "SYARIKAT": "Dynamite Pacific Sdn. Bhd.", "ALAMAT": "Suite 1, 2nd Floor, Wisma Lister Garden, No.123, Jalan Macalister, 10400 Georgetown, Pulau Pinang", "STD_SHEET": "15-C-III", "AREA": "853 Msq" }, "geometry": { "type": "Polygon", "coordinates": [ [ [ 100.243624448558478, 5.288911179490668 ], [ 100.243591815750193, 5.288705077240611 ], [ 100.243237505267032, 5.288697929913719 ], [ 100.242991899366785, 5.289091862230769 ], [ 100.243007836381693, 5.289114209864753 ], [ 100.243279658453474, 5.288829827619186 ], [ 100.243509537955063, 5.288782543510129 ], [ 100.243624448558478, 5.288911179490668 ] ] ] } },
{ "type": "Feature", "properties": { "OBJECTID": 9, "LOT": 144, "NEGERI": "Pulau Pinang", "DAERAH": "Barat Daya", "MUKIM": "Mukim 11", "REGISTRATION": "Geran Mukim", "NO_HAKMILIK": "644", "CUKAI": "RM16.00", "SYARAT": "Second Class", "SYARIKAT": "Dynamite Pacific Sdn. Bhd.", "ALAMAT": "Suite 1, 2nd Floor, Wisma Lister Garden, No.123, Jalan Macalister, 10400 Georgetown, Pulau Pinang", "STD_SHEET": "15-C-III", "AREA": "3525 Msq" }, "geometry": { "type": "Polygon", "coordinates": [ [ [ 100.244841319724088, 5.289611740316428 ], [ 100.244864597285854, 5.289652138729492 ], [ 100.245066646351731, 5.289547399976168 ], [ 100.245055503707746, 5.289272746941697 ], [ 100.244933957587889, 5.288776606307795 ], [ 100.244758033363226, 5.288831721734073 ], [ 100.244506802844796, 5.289033283948966 ], [ 100.244841319724088, 5.289611740316428 ] ] ] } },
{ "type": "Feature", "properties": { "OBJECTID": 10, "LOT": 1060, "NEGERI": "Pulau Pinang", "DAERAH": "Barat Daya", "MUKIM": "Mukim 11", "REGISTRATION": "Geran Mukim", "NO_HAKMILIK": "1165", "CUKAI": "RM47.00", "SYARAT": "First Grade", "SYARIKAT": "Dynamite Pacific Sdn. Bhd.", "ALAMAT": "Suite 1, 2nd Floor, Wisma Lister Garden, No.123, Jalan Macalister, 10400 Georgetown, Pulau Pinang", "STD_SHEET": "15-C-III", "AREA": "1.172 Ha" }, "geometry": { "type": "Polygon", "coordinates": [ [ [ 100.244773773656789, 5.287940482201716 ], [ 100.244773043022775, 5.288109240868959 ], [ 100.244933957587889, 5.288776606307795 ], [ 100.245055503707746, 5.289272746941697 ], [ 100.245066646351731, 5.289547399976168 ], [ 100.245428794652625, 5.289057232698727 ], [ 100.245730929580603, 5.28887160276945 ], [ 100.246056443229961, 5.288598956472097 ], [ 100.246168437823243, 5.28845804046419 ], [ 100.245861083224113, 5.288451435604329 ], [ 100.245562265521329, 5.288256875067824 ], [ 100.245342563685156, 5.288182498259515 ], [ 100.24500396948936, 5.287999894874771 ], [ 100.244773773656789, 5.287940482201716 ] ] ] } },
{ "type": "Feature", "properties": { "OBJECTID": 11, "LOT": 673, "NEGERI": "Pulau Pinang", "DAERAH": "Barat Daya", "MUKIM": "Mukim 11", "REGISTRATION": "Geran Mukim", "NO_HAKMILIK": "326", "CUKAI": "RM60.00", "SYARAT": "Second Class", "SYARIKAT": "Dynamite Pacific Sdn. Bhd.", "ALAMAT": "Suite 1, 2nd Floor, Wisma Lister Garden, No.123, Jalan Macalister, 10400 Georgetown, Pulau Pinang", "STD_SHEET": "15-C-III", "AREA": "14088 Msq" }, "geometry": { "type": "Polygon", "coordinates": [ [ [ 100.244025564277408, 5.288118090937115 ], [ 100.243982838787204, 5.288458052209039 ], [ 100.243591815750193, 5.288705077240611 ], [ 100.243624448558478, 5.288911179490668 ], [ 100.243903681107483, 5.289327017769236 ], [ 100.244051578843781, 5.289816534395254 ], [ 100.24414844835924, 5.289993447452439 ], [ 100.244331596168379, 5.290293267559105 ], [ 100.244462388407541, 5.290005398595466 ], [ 100.244841319724088, 5.289611740316428 ], [ 100.244506802844796, 5.289033283948966 ], [ 100.244373675698611, 5.288806710480602 ], [ 100.244025564277408, 5.288118090937115 ] ] ] } },
{ "type": "Feature", "properties": { "OBJECTID": 12, "LOT": 20151, "NEGERI": "Pulau Pinang", "DAERAH": "Barat Daya", "MUKIM": "Mukim 11", "REGISTRATION": "Geran Mukim", "NO_HAKMILIK": "1467", "CUKAI": "RM39.00", "SYARAT": "First Grade", "SYARIKAT": "Dynamite Pacific Sdn. Bhd.", "ALAMAT": "Suite 1, 2nd Floor, Wisma Lister Garden, No.123, Jalan Macalister, 10400 Georgetown, Pulau Pinang", "STD_SHEET": "15-C-III", "AREA": "9594 Msq" }, "geometry": { "type": "Polygon", "coordinates": [ [ [ 100.24486458826452, 5.289652138728044 ], [ 100.245965632824891, 5.289982263116857 ], [ 100.246105085883116, 5.289515354592 ], [ 100.246560911394326, 5.289652164512661 ], [ 100.246661434081901, 5.289606350896015 ], [ 100.246638681176563, 5.28955616820236 ], [ 100.246588212332014, 5.289579174450296 ], [ 100.24652476033512, 5.289439270622601 ], [ 100.246419973179002, 5.28923907117857 ], [ 100.245541099815526, 5.289234717714097 ], [ 100.245543421537405, 5.288986779583437 ], [ 100.245428776609998, 5.289057232695847 ], [ 100.245066628309104, 5.289547399973278 ], [ 100.24486458826452, 5.289652138728044 ] ] ] } },
{ "type": "Feature", "properties": { "OBJECTID": 13, "LOT": 20152, "NEGERI": "Pulau Pinang", "DAERAH": "Barat Daya", "MUKIM": "Mukim 11", "REGISTRATION": "Geran Mukim", "NO_HAKMILIK": "1468", "CUKAI": "RM20.00", "SYARAT": "First Grade", "SYARIKAT": "Dynamite Pacific Sdn. Bhd.", "ALAMAT": "Suite 1, 2nd Floor, Wisma Lister Garden, No.123, Jalan Macalister, 10400 Georgetown, Pulau Pinang", "STD_SHEET": "15-C-III", "AREA": "4797 Msq" }, "geometry": { "type": "Polygon", "coordinates": [ [ [ 100.245965632824891, 5.289982263116857 ], [ 100.246678716645818, 5.290196086986611 ], [ 100.24677796561015, 5.290161739562247 ], [ 100.246892435191825, 5.29011680526787 ], [ 100.246836251839852, 5.289992347905192 ], [ 100.246758542031614, 5.289820601772382 ], [ 100.246661434081901, 5.289606350896015 ], [ 100.246560911394326, 5.289652164512661 ], [ 100.246105085883116, 5.289515354592 ], [ 100.245965632824891, 5.289982263116857 ] ] ] } },
{ "type": "Feature", "properties": { "OBJECTID": 14, "LOT": 675, "NEGERI": "Pulau Pinang", "DAERAH": "Barat Daya", "MUKIM": "Mukim 11", "REGISTRATION": "Geran Mukim", "NO_HAKMILIK": "626", "CUKAI": "RM28.00", "SYARAT": "Second Class", "SYARIKAT": "Dynamite Pacific Sdn. Bhd.", "ALAMAT": "Suite 1, 2nd Floor, Wisma Lister Garden, No.123, Jalan Macalister, 10400 Georgetown, Pulau Pinang", "STD_SHEET": "15-C-III", "AREA": "6662 Msq" }, "geometry": { "type": "Polygon", "coordinates": [ [ [ 100.245865128499091, 5.290481696092635 ], [ 100.246678716645818, 5.290196086986611 ], [ 100.245965632824891, 5.289982263116857 ], [ 100.244864597285854, 5.289652138729492 ], [ 100.245004356734185, 5.289927246450944 ], [ 100.245247957385601, 5.290053506378861 ], [ 100.245615663065408, 5.29030250732017 ], [ 100.245865128499091, 5.290481696092635 ] ] ] } },
{ "type": "Feature", "properties": { "OBJECTID": 15, "LOT": 645, "NEGERI": "Pulau Pinang", "DAERAH": "Barat Daya", "MUKIM": "Mukim 11", "REGISTRATION": "Geran Mukim", "NO_HAKMILIK": "624", "CUKAI": "RM42.00", "SYARAT": "Second Class", "SYARIKAT": "Dynamite Pacific Sdn. Bhd.", "ALAMAT": "Suite 1, 2nd Floor, Wisma Lister Garden, No.123, Jalan Macalister, 10400 Georgetown, Pulau Pinang", "STD_SHEET": "15-C-III", "AREA": "10825 Msq" }, "geometry": { "type": "Polygon", "coordinates": [ [ [ 100.245865128499091, 5.290481696092635 ], [ 100.245615663065408, 5.29030250732017 ], [ 100.245247957385601, 5.290053506378861 ], [ 100.245004356734185, 5.289927246450944 ], [ 100.244864597285854, 5.289652138729492 ], [ 100.244841319724088, 5.289611740316428 ], [ 100.244462388407541, 5.290005398595466 ], [ 100.244331596168379, 5.290293267559105 ], [ 100.245210569137782, 5.290871250688499 ], [ 100.245412549568172, 5.290746409434524 ], [ 100.245865128499091, 5.290481696092635 ] ] ] } },
{ "type": "Feature", "properties": { "OBJECTID": 16, "LOT": 649, "NEGERI": "Pulau Pinang", "DAERAH": "Barat Daya", "MUKIM": "Mukim 11", "REGISTRATION": "Geran Mukim", "NO_HAKMILIK": "655", "CUKAI": "RM111.00", "SYARAT": "Second Class", "SYARIKAT": "Dynamite Pacific Sdn. Bhd.", "ALAMAT": "Suite 1, 2nd Floor, Wisma Lister Garden, No.123, Jalan Macalister, 10400 Georgetown, Pulau Pinang", "STD_SHEET": "15-C-III", "AREA": "30452 Msq" }, "geometry": { "type": "Polygon", "coordinates": [ [ [ 100.241936455320996, 5.292578787932499 ], [ 100.242151076060452, 5.292672688758842 ], [ 100.242608682241425, 5.292797067894562 ], [ 100.242714069275209, 5.292523944158303 ], [ 100.242817832522462, 5.29258174535532 ], [ 100.243047745686013, 5.29244724260681 ], [ 100.243238889919141, 5.292337800386052 ], [ 100.24343802526289, 5.291960834005629 ], [ 100.243717472929958, 5.291499808679728 ], [ 100.244030795019214, 5.291432417473636 ], [ 100.244400622729657, 5.291277481781384 ], [ 100.244520117411113, 5.291233570592905 ], [ 100.244760990422023, 5.291043952421765 ], [ 100.245210569137782, 5.290871250688499 ], [ 100.244331596168379, 5.290293267559105 ], [ 100.244328483720864, 5.290630820766631 ], [ 100.244123472930568, 5.290637434182801 ], [ 100.243357422604689, 5.290773803482584 ], [ 100.243482906647614, 5.291068839773319 ], [ 100.24300853653061, 5.291242395262993 ], [ 100.242660193913977, 5.291528709017037 ], [ 100.24255233005627, 5.291778022371436 ], [ 100.24247102253193, 5.291931955475953 ], [ 100.242363347217193, 5.292075756171372 ], [ 100.242184076351634, 5.292286968965897 ], [ 100.241936455320996, 5.292578787932499 ] ] ] } },
{ "type": "Feature", "properties": { "OBJECTID": 17, "LOT": 646, "NEGERI": "Pulau Pinang", "DAERAH": "Barat Daya", "MUKIM": "Mukim 11", "REGISTRATION": "Geran Mukim", "NO_HAKMILIK": "654", "CUKAI": "RM17.00", "SYARAT": "Second Class", "SYARIKAT": "Dynamite Pacific Sdn. Bhd.", "ALAMAT": "Suite 1, 2nd Floor, Wisma Lister Garden, No.123, Jalan Macalister, 10400 Georgetown, Pulau Pinang", "STD_SHEET": "14-D-IV", "AREA": "4299 Msq" }, "geometry": { "type": "Polygon", "coordinates": [ [ [ 100.24217336437485, 5.293463151084935 ], [ 100.242407902994842, 5.293346807508186 ], [ 100.242923999349784, 5.2931140011819 ], [ 100.242608682241425, 5.292797067894562 ], [ 100.242151076060452, 5.292672688758842 ], [ 100.24217336437485, 5.293463151084935 ] ] ] } },
{ "type": "Feature", "properties": { "OBJECTID": 18, "LOT": 21161, "NEGERI": "Pulau Pinang", "DAERAH": "Barat Daya", "MUKIM": "Mukim 11", "REGISTRATION": "Geran Mukim", "NO_HAKMILIK": "1615", "CUKAI": "RM477.00", "SYARAT": "First Grade", "SYARIKAT": "Dynamite Pacific Sdn. Bhd.", "ALAMAT": "Suite 1, 2nd Floor, Wisma Lister Garden, No.123, Jalan Macalister, 10400 Georgetown, Pulau Pinang", "STD_SHEET": "15-C-III", "AREA": "2168 Msq" }, "geometry": { "type": "Polygon", "coordinates": [ [ [ 100.243185955370521, 5.287766908765945 ], [ 100.243057557622294, 5.287697564859918 ], [ 100.243121057522202, 5.287869942128179 ], [ 100.243196338310554, 5.288270437745066 ], [ 100.243260910396586, 5.288396108545691 ], [ 100.24336622090874, 5.288477159218795 ], [ 100.243593714164561, 5.288569162620847 ], [ 100.243739821478414, 5.28857946813693 ], [ 100.243823850270502, 5.288552199309838 ], [ 100.243911323215983, 5.288425278166098 ], [ 100.243922325417401, 5.288224898114954 ], [ 100.243975515920482, 5.287995054050688 ], [ 100.243924113427312, 5.287877985261198 ], [ 100.243864515065454, 5.287956974464466 ], [ 100.243832081838477, 5.288358799938618 ], [ 100.243775504723402, 5.288442925993453 ], [ 100.243610770146717, 5.288477976693754 ], [ 100.24338549071237, 5.288363927045627 ], [ 100.243290678441085, 5.288243071199813 ], [ 100.243185955370521, 5.287766908765945 ] ] ] } },
{ "type": "Feature", "properties": { "OBJECTID": 19, "LOT": 1412, "NEGERI": "Pulau Pinang", "DAERAH": "Timor Laut", "MUKIM": "Georgetown", "REGISTRATION": "Geran", "NO_HAKMILIK": "60675", "CUKAI": "RM2313.00", "SYARAT": "First Grade", "SYARIKAT": "Affluent Base Sdn. Bhd.", "ALAMAT": "25-B, Farquhar Street, 10200 Pulau Pinang", "STD_SHEET": "11-B-IV", "AREA": "1793 Msq" }, "geometry": { "type": "Polygon", "coordinates": [ [ [ 100.323240291430992, 5.402265617995263 ], [ 100.323329757873708, 5.402156853230946 ], [ 100.323429961636492, 5.402047256877593 ], [ 100.323318017110964, 5.4019502137606 ], [ 100.32319111300697, 5.401840202597767 ], [ 100.322875640815823, 5.402167535059334 ], [ 100.323128682480231, 5.402377773054911 ], [ 100.323240291430992, 5.402265617995263 ] ] ] } },
{ "type": "Feature", "properties": { "OBJECTID": 20, "LOT": 1032, "NEGERI": "Pulau Pinang", "DAERAH": "Timor Laut", "MUKIM": "Georgetown", "REGISTRATION": "Geran", "NO_HAKMILIK": "12154", "CUKAI": "RM1699.00", "SYARAT": "First Grade", "SYARIKAT": "Affluent Base Sdn. Bhd.", "ALAMAT": "25-B, Farquhar Street, 10200 Pulau Pinang", "STD_SHEET": "11-B-IV", "AREA": "1315 Msq" }, "geometry": { "type": "Polygon", "coordinates": [ [ [ 100.322875640815823, 5.402167535059334 ], [ 100.32319111300697, 5.401840202597767 ], [ 100.323066546455422, 5.40171413131869 ], [ 100.323035364054192, 5.401687417528433 ], [ 100.323024482696439, 5.401678084884094 ], [ 100.322882402110679, 5.40182364326198 ], [ 100.322710688556754, 5.402011439884948 ], [ 100.32270279315955, 5.402020075562452 ], [ 100.322875640815823, 5.402167535059334 ] ] ] } },
{ "type": "Feature", "properties": { "OBJECTID": 21, "LOT": 1413, "NEGERI": "Pulau Pinang", "DAERAH": "Timor Laut", "MUKIM": "Georgetown", "REGISTRATION": "Geran", "NO_HAKMILIK": "60671", "CUKAI": "RM900.00", "SYARAT": "First Grade", "SYARIKAT": "Affluent Base Sdn. Bhd.", "ALAMAT": "25-B, Farquhar Street, 10200 Pulau Pinang", "STD_SHEET": "11-B-IV", "AREA": "697 Msq" }, "geometry": { "type": "Polygon", "coordinates": [ [ [ 100.3232879237204, 5.401741900717074 ], [ 100.323258823662925, 5.401771451868331 ], [ 100.32319111300697, 5.401840202597767 ], [ 100.323318017110964, 5.4019502137606 ], [ 100.32355035670507, 5.40173317434257 ], [ 100.323530353887477, 5.401701677272452 ], [ 100.323420836504368, 5.401606949236498 ], [ 100.3232879237204, 5.401741900717074 ] ] ] } },
{ "type": "Feature", "properties": { "OBJECTID": 22, "LOT": 1414, "NEGERI": "Pulau Pinang", "DAERAH": "Timor Laut", "MUKIM": "Georgetown", "REGISTRATION": "Geran", "NO_HAKMILIK": "60672", "CUKAI": "RM581.00", "SYARAT": "First Grade", "SYARIKAT": "Affluent Base Sdn. Bhd.", "ALAMAT": "25-B, Farquhar Street, 10200 Pulau Pinang", "STD_SHEET": "11-B-IV", "AREA": "450 Msq" }, "geometry": { "type": "Polygon", "coordinates": [ [ [ 100.323516278795054, 5.401944496454644 ], [ 100.323556513840231, 5.401895593889853 ], [ 100.323572350334032, 5.401860372378536 ], [ 100.323577828192526, 5.401833307198286 ], [ 100.323568825705067, 5.401762238822204 ], [ 100.32355035670507, 5.40173317434257 ], [ 100.323318017110964, 5.4019502137606 ], [ 100.323429961636492, 5.402047256877593 ], [ 100.323516278795054, 5.401944496454644 ] ] ] } },
{ "type": "Feature", "properties": { "OBJECTID": 23, "LOT": 2447, "NEGERI": "Pulau Pinang", "DAERAH": "Timor Laut", "MUKIM": "Georgetown", "REGISTRATION": "Geran", "NO_HAKMILIK": "63947", "CUKAI": "RM1281.00", "SYARAT": "First Grade", "SYARIKAT": "Soaring Profit Sdn. Bhd.", "ALAMAT": "25-B, Farquhar Street, 10200 Pulau Pinangbuh Farquhar", "STD_SHEET": "11-B-III", "AREA": "2792 Msq" }, "geometry": { "type": "Polygon", "coordinates": [ [ [ 100.303841335342781, 5.399387122617777 ], [ 100.303875500695042, 5.399726088525369 ], [ 100.303943225947094, 5.399738689780152 ], [ 100.304494826842927, 5.399841353982685 ], [ 100.304480811145069, 5.399474600635806 ], [ 100.303865635568286, 5.399364562231884 ], [ 100.303841335342781, 5.399387122617777 ] ] ] } },
{ "type": "Feature", "properties": { "OBJECTID": 24, "LOT": 994, "NEGERI": "Pulau Pinang", "DAERAH": "Barat Daya", "MUKIM": "Mukim 11", "REGISTRATION": "Geran Mukim", "NO_HAKMILIK": "196", "CUKAI": "RM50.00", "SYARAT": "First Grade", "SYARIKAT": "Soaring Profit Sdn. Bhd.", "ALAMAT": "25-B, Farquhar Street, 10200 Pulau Pinangbuh Farquhar", "STD_SHEET": "14-D-IV", "AREA": "7055 Msq" }, "geometry": { "type": "Polygon", "coordinates": [ [ [ 100.242263801792475, 5.282573441520899 ], [ 100.24257879191083, 5.282927134364229 ], [ 100.242871864822646, 5.283256163449355 ], [ 100.243102684098019, 5.283464513643348 ], [ 100.243367451614219, 5.282996974990609 ], [ 100.243394513999775, 5.282949115265572 ], [ 100.242489480898271, 5.282270143196073 ], [ 100.242263801792475, 5.282573441520899 ] ] ] } },
{ "type": "Feature", "properties": { "OBJECTID": 25, "LOT": 579, "NEGERI": "Pulau Pinang", "DAERAH": "Barat Daya", "MUKIM": "Mukim 1", "REGISTRATION": "Geran Mukim", "NO_HAKMILIK": "St. Gt. 27447/4396", "CUKAI": "RM10.50", "SYARAT": "Second Class", "SYARIKAT": "Boon Siew Sdn. Bhd.", "ALAMAT": "1, Jalan Penang, George Town, 10450 George Town, Pulau Pinang", "STD_SHEET": "6-B-III", "AREA": "6420 Msq" }, "geometry": { "type": "Polygon", "coordinates": [ [ [ 100.205715338215285, 5.459454541339901 ], [ 100.205433823422126, 5.459331909576332 ], [ 100.205365048468053, 5.45923380591554 ], [ 100.204374784824182, 5.459582060199244 ], [ 100.204422783290667, 5.459851041791473 ], [ 100.204402088816337, 5.460135651503708 ], [ 100.205715338215285, 5.459454541339901 ] ] ] } },
{ "type": "Feature", "properties": { "OBJECTID": 26, "LOT": 580, "NEGERI": "Pulau Pinang", "DAERAH": "Barat Daya", "MUKIM": "Mukim 1", "REGISTRATION": "Geran", "NO_HAKMILIK": "580", "CUKAI": "-", "SYARAT": "Second Class", "SYARIKAT": "Boon Siew Sdn. Bhd.", "ALAMAT": "1, Jalan Penang, George Town, 10450 George Town, Pulau Pinang", "STD_SHEET": "6-B-III", "AREA": "1741 Msq" }, "geometry": { "type": "Polygon", "coordinates": [ [ [ 100.205830694346844, 5.459394740472613 ], [ 100.206012852698933, 5.459300140006715 ], [ 100.205981886174811, 5.459207479868583 ], [ 100.206272185995374, 5.458914775438597 ], [ 100.205466917472179, 5.459198101183697 ], [ 100.205510678288533, 5.459257604184609 ], [ 100.205830694346844, 5.459394740472613 ] ] ] } },
{ "type": "Feature", "properties": { "OBJECTID": 27, "LOT": 1439, "NEGERI": "Pulau Pinang", "DAERAH": "Barat Daya", "MUKIM": "Mukim 9", "REGISTRATION": "Geran Mukim", "NO_HAKMILIK": "Gt. 169", "CUKAI": "RM66.00", "SYARAT": "First Grade", "SYARIKAT": "Boon Siew Sdn. Bhd.", "ALAMAT": "1, Jalan Penang, George Town, 10450 George Town, Pulau Pinang", "STD_SHEET": "14-D-IV", "AREA": "2.883 Ha" }, "geometry": { "type": "Polygon", "coordinates": [ [ [ 100.221078685116083, 5.280867277813883 ], [ 100.220671133703689, 5.281146179414893 ], [ 100.219935361305772, 5.281391936104398 ], [ 100.219293302924825, 5.281805845504532 ], [ 100.218654280959541, 5.281875880334235 ], [ 100.218152707954488, 5.282114221850564 ], [ 100.217508182887229, 5.282449039617627 ], [ 100.217729267419685, 5.282796160421923 ], [ 100.218078342684677, 5.282532359621017 ], [ 100.218399168864067, 5.282374653269446 ], [ 100.218993602016653, 5.282202479158901 ], [ 100.219339601322659, 5.282113015145599 ], [ 100.220028985523285, 5.282376473918423 ], [ 100.220216180909119, 5.282712627081891 ], [ 100.220640693889479, 5.282340505903479 ], [ 100.220466761338329, 5.281995366861413 ], [ 100.22066845954167, 5.281893791965063 ], [ 100.220909086321157, 5.281735742762112 ], [ 100.221433549107587, 5.281475257443221 ], [ 100.221366824390017, 5.281403723895367 ], [ 100.221078685116083, 5.280867277813883 ] ] ] } },
{ "type": "Feature", "properties": { "OBJECTID": 28, "LOT": 318, "NEGERI": "Pulau Pinang", "DAERAH": "Barat Daya", "MUKIM": "Mukim 11", "REGISTRATION": "Geran Mukim", "NO_HAKMILIK": "St. Grant 9317/3193", "CUKAI": "RM5.00", "SYARAT": "Second Class", "SYARIKAT": "Boon Siew Sdn. Bhd.", "ALAMAT": "1, Jalan Penang, George Town, 10450 George Town, Pulau Pinang", "STD_SHEET": "15-C-III", "AREA": "1755 Msq" }, "geometry": { "type": "Polygon", "coordinates": [ [ [ 100.255491885960708, 5.281439080414576 ], [ 100.255603753194237, 5.281344814989625 ], [ 100.255331308665674, 5.280806831075616 ], [ 100.255041342246145, 5.280984536961338 ], [ 100.255145611075292, 5.281097353268899 ], [ 100.255309572321067, 5.281216191661877 ], [ 100.255491885960708, 5.281439080414576 ] ] ] } },
{ "type": "Feature", "properties": { "OBJECTID": 29, "LOT": 319, "NEGERI": "Pulau Pinang", "DAERAH": "Barat Daya", "MUKIM": "Mukim 11", "REGISTRATION": "Geran Mukim", "NO_HAKMILIK": "St. Grant 9317/3193", "CUKAI": "RM6.20", "SYARAT": "Second Class", "SYARIKAT": "Boon Siew Sdn. Bhd.", "ALAMAT": "1, Jalan Penang, George Town, 10450 George Town, Pulau Pinang", "STD_SHEET": "15-C-III", "AREA": "8617 Msq" }, "geometry": { "type": "Polygon", "coordinates": [ [ [ 100.255491885960708, 5.281439080414576 ], [ 100.255309572321067, 5.281216191661877 ], [ 100.255145611075292, 5.281097353268899 ], [ 100.255041342246145, 5.280984536961338 ], [ 100.254243656481165, 5.281581498201184 ], [ 100.254574123374951, 5.282129392954867 ], [ 100.255152476046121, 5.281729309291831 ], [ 100.255491885960708, 5.281439080414576 ] ] ] } },
{ "type": "Feature", "properties": { "OBJECTID": 30, "LOT": 320, "NEGERI": "Pulau Pinang", "DAERAH": "Barat Daya", "MUKIM": "Mukim 11", "REGISTRATION": "Geran Mukim", "NO_HAKMILIK": "Grants 1887 & 1890", "CUKAI": "RM1.00", "SYARAT": "First Grade", "SYARIKAT": "Boon Siew Sdn. Bhd.", "ALAMAT": "1, Jalan Penang, George Town, 10450 George Town, Pulau Pinang", "STD_SHEET": "15-C-III", "AREA": "1077 Msq" }, "geometry": { "type": "Polygon", "coordinates": [ [ [ 100.255846476180935, 5.281799057156968 ], [ 100.255603753194237, 5.281344814989625 ], [ 100.255491885960708, 5.281439080414576 ], [ 100.255652859192097, 5.28189024539931 ], [ 100.255846476180935, 5.281799057156968 ] ] ] } },
{ "type": "Feature", "properties": { "OBJECTID": 31, "LOT": 321, "NEGERI": "Pulau Pinang", "DAERAH": "Barat Daya", "MUKIM": "Mukim 11", "REGISTRATION": "Geran Mukim", "NO_HAKMILIK": "Grants 1887 & 1890", "CUKAI": "RM2.50", "SYARAT": "First Grade", "SYARIKAT": "Boon Siew Sdn. Bhd.", "ALAMAT": "1, Jalan Penang, George Town, 10450 George Town, Pulau Pinang", "STD_SHEET": "15-C-III", "AREA": "4931 Msq" }, "geometry": { "type": "Polygon", "coordinates": [ [ [ 100.25534591752367, 5.282046381637457 ], [ 100.255652859192097, 5.28189024539931 ], [ 100.255491885960708, 5.281439080414576 ], [ 100.255152476046121, 5.281729309291831 ], [ 100.254574123374951, 5.282129392954867 ], [ 100.254807862025245, 5.282386462510652 ], [ 100.255133052322293, 5.282178305282872 ], [ 100.25534591752367, 5.282046381637457 ] ] ] } },
{ "type": "Feature", "properties": { "OBJECTID": 32, "LOT": 866, "NEGERI": "Pulau Pinang", "DAERAH": "Barat Daya", "MUKIM": "Mukim 11", "REGISTRATION": "Geran Mukim", "NO_HAKMILIK": "11794/90", "CUKAI": "-", "SYARAT": "Second Class", "SYARIKAT": "Boon Siew Sdn. Bhd.", "ALAMAT": "1, Jalan Penang, George Town, 10450 George Town, Pulau Pinang", "STD_SHEET": "15-C-III", "AREA": "7331 Msq" }, "geometry": { "type": "Polygon", "coordinates": [ [ [ 100.255331308665674, 5.280806831075616 ], [ 100.255215057817267, 5.280644159489435 ], [ 100.255130328200593, 5.280536473333691 ], [ 100.255013561197899, 5.280388107527088 ], [ 100.254942673319619, 5.280321188797198 ], [ 100.25480604713627, 5.280449677969487 ], [ 100.254631896713306, 5.280613465227617 ], [ 100.254291930174119, 5.280947940542897 ], [ 100.254243656481165, 5.281581498201184 ], [ 100.255041342246145, 5.280984536961338 ], [ 100.255331308665674, 5.280806831075616 ] ] ] } },
{ "type": "Feature", "properties": { "OBJECTID": 33, "LOT": 1409, "NEGERI": "Pulau Pinang", "DAERAH": "Barat Daya", "MUKIM": "Mukim 11", "REGISTRATION": "Geran Mukim", "NO_HAKMILIK": "1034", "CUKAI": "RM5.00", "SYARAT": "First Grade", "SYARIKAT": "Boon Siew Sdn. Bhd.", "ALAMAT": "1, Jalan Penang, George Town, 10450 George Town, Pulau Pinang", "STD_SHEET": "15-C-III", "AREA": "0.179 Ha" }, "geometry": { "type": "Polygon", "coordinates": [ [ [ 100.2569579140022, 5.28303190858302 ], [ 100.257151650708096, 5.283182500361449 ], [ 100.2571792068577, 5.283208855285626 ], [ 100.257474827011492, 5.282858465715378 ], [ 100.257380940744127, 5.282811393237905 ], [ 100.25712559904737, 5.282654896894817 ], [ 100.2569579140022, 5.28303190858302 ] ] ] } },
{ "type": "Feature", "properties": { "OBJECTID": 34, "LOT": 1410, "NEGERI": "Pulau Pinang", "DAERAH": "Barat Daya", "MUKIM": "Mukim 11", "REGISTRATION": "Geran Mukim", "NO_HAKMILIK": "1035", "CUKAI": "RM24.00", "SYARAT": "First Grade", "SYARIKAT": "Boon Siew Sdn. Bhd.", "ALAMAT": "1, Jalan Penang, George Town, 10450 George Town, Pulau Pinang", "STD_SHEET": "15-C-III", "AREA": "0.5364 Ha" }, "geometry": { "type": "Polygon", "coordinates": [ [ [ 100.25712559904737, 5.282654896894817 ], [ 100.256992719033207, 5.282572813755399 ], [ 100.256817798011667, 5.282442082822529 ], [ 100.256175203686865, 5.28311125795385 ], [ 100.256383803262878, 5.283417679578563 ], [ 100.256435211593754, 5.283379471508434 ], [ 100.25659991849075, 5.283269958000469 ], [ 100.25677052576107, 5.283156511612441 ], [ 100.2569579140022, 5.28303190858302 ], [ 100.25712559904737, 5.282654896894817 ] ] ] } },
{ "type": "Feature", "properties": { "OBJECTID": 35, "LOT": 268, "NEGERI": "Pulau Pinang", "DAERAH": "Barat Daya", "MUKIM": "Mukim 12", "REGISTRATION": "Geran Mukim", "NO_HAKMILIK": "456", "CUKAI": "RM83.00", "SYARAT": "Second Class", "SYARIKAT": "Boon Siew Sdn. Bhd.", "ALAMAT": "Suite 123K, Tingkat 2, Wisma Lister Garden, Jalan Macalister, 10400 Pulau Pinang", "STD_SHEET": "19-A-II", "AREA": "21525 Msq" }, "geometry": { "type": "Polygon", "coordinates": [ [ [ 100.269279671989324, 5.270142324912223 ], [ 100.269019476966619, 5.270602578126223 ], [ 100.269719865806834, 5.270868949446604 ], [ 100.270275107127375, 5.270826233763781 ], [ 100.270458552838349, 5.270650054269036 ], [ 100.270133870703901, 5.270091452465892 ], [ 100.270145054102372, 5.2699620676844 ], [ 100.270288113096285, 5.269095094652206 ], [ 100.270111276210415, 5.269001063365761 ], [ 100.270031754907023, 5.26900977124845 ], [ 100.269843175547408, 5.268892018900913 ], [ 100.269773133451665, 5.268840945132413 ], [ 100.269642358602042, 5.269119442378426 ], [ 100.269445353012699, 5.269383499120054 ], [ 100.269209982537419, 5.26955828848821 ], [ 100.269279671989324, 5.270142324912223 ] ] ] } },
{ "type": "Feature", "properties": { "OBJECTID": 36, "LOT": 1453, "NEGERI": "Pulau Pinang", "DAERAH": "Barat Daya", "MUKIM": "Mukim 12", "REGISTRATION": "Geran Mukim", "NO_HAKMILIK": "881", "CUKAI": "RM24.00", "SYARAT": "First Grade", "SYARIKAT": "Boon Siew Sdn. Bhd.", "ALAMAT": "Suite 123K, Tingkat 2, Wisma Lister Garden, Jalan Macalister, 10400 Pulau Pinang", "STD_SHEET": "19-A-II", "AREA": "5637 Msq" }, "geometry": { "type": "Polygon", "coordinates": [ [ [ 100.272744330949465, 5.266714805771918 ], [ 100.273604290396705, 5.267689251893747 ], [ 100.273844626675327, 5.267859584528591 ], [ 100.273967818101042, 5.267613468207516 ], [ 100.273536421060754, 5.267010771778918 ], [ 100.273345936951699, 5.266824646728949 ], [ 100.273101069221866, 5.266842957794344 ], [ 100.272847875133536, 5.266703215605295 ], [ 100.272744330949465, 5.266714805771918 ] ] ] } },
{ "type": "Feature", "properties": { "OBJECTID": 37, "LOT": 1454, "NEGERI": "Pulau Pinang", "DAERAH": "Barat Daya", "MUKIM": "Mukim 12", "REGISTRATION": "Geran Mukim", "NO_HAKMILIK": "882", "CUKAI": "RM15.00", "SYARAT": "First Grade", "SYARIKAT": "Boon Siew Sdn. Bhd.", "ALAMAT": "Suite 123K, Tingkat 2, Wisma Lister Garden, Jalan Macalister, 10400 Pulau Pinang", "STD_SHEET": "19-A-II", "AREA": "2106 Msq" }, "geometry": { "type": "Polygon", "coordinates": [ [ [ 100.272532016334424, 5.268257368220257 ], [ 100.272683701699734, 5.268518454870041 ], [ 100.272887931388595, 5.268334047961774 ], [ 100.273113347459983, 5.268104139424622 ], [ 100.273270382253898, 5.267970502989619 ], [ 100.273604290396705, 5.267689251893747 ], [ 100.272532016334424, 5.268257368220257 ] ] ] } },
{ "type": "Feature", "properties": { "OBJECTID": 38, "LOT": 2016, "NEGERI": "Pulau Pinang", "DAERAH": "Barat Daya", "MUKIM": "Mukim 12", "REGISTRATION": "Geran Mukim", "NO_HAKMILIK": "933", "CUKAI": "RN104.00", "SYARAT": "First Grade", "SYARIKAT": "Boon Siew Sdn. Bhd.", "ALAMAT": "Suite 123K, Tingkat 2, Wisma Lister Garden, Jalan Macalister, 10400 Pulau Pinang", "STD_SHEET": "19-A-II", "AREA": "25641 Msq" }, "geometry": { "type": "Polygon", "coordinates": [ [ [ 100.271454996420189, 5.267113060139867 ], [ 100.271961518474356, 5.267403406106328 ], [ 100.272233201158727, 5.267895327402593 ], [ 100.272477937087132, 5.268164201792596 ], [ 100.272532016334424, 5.268257368220257 ], [ 100.273604290396705, 5.267689251893747 ], [ 100.272744330949465, 5.266714805771918 ], [ 100.272550533180379, 5.266557291907237 ], [ 100.272680185381603, 5.266376737768869 ], [ 100.272637476252427, 5.266173927222165 ], [ 100.272494731450493, 5.266225193176331 ], [ 100.272349397727467, 5.266197016722216 ], [ 100.272014119413086, 5.266549561403699 ], [ 100.271647925121798, 5.266830292438715 ], [ 100.271508101240414, 5.26697316330666 ], [ 100.271454996420189, 5.267113060139867 ] ] ] } },
{ "type": "Feature", "properties": { "OBJECTID": 39, "LOT": 1683, "NEGERI": "Pulau Pinang", "DAERAH": "Barat Daya", "MUKIM": "Mukim 12", "REGISTRATION": "Geran Mukim", "NO_HAKMILIK": "1190", "CUKAI": "RM15.00", "SYARAT": "Second Class", "SYARIKAT": "Boon Siew Sdn. Bhd.", "ALAMAT": "Suite 123K, Tingkat 2, Wisma Lister Garden, Jalan Macalister, 10400 Pulau Pinang", "STD_SHEET": "19-A-II", "AREA": "2084 Msq" }, "geometry": { "type": "Polygon", "coordinates": [ [ [ 100.270458552838349, 5.270650054269036 ], [ 100.271222145520383, 5.270901601022373 ], [ 100.271280486237828, 5.270733418588917 ], [ 100.271089240077387, 5.270733947710209 ], [ 100.271035614383948, 5.270388782133606 ], [ 100.270458552838349, 5.270650054269036 ] ] ] } },
{ "type": "Feature", "properties": { "OBJECTID": 40, "LOT": 106, "NEGERI": "Pulau Pinang", "DAERAH": "Timor Laut", "MUKIM": "Tanjong Tokong", "REGISTRATION": "Geran", "NO_HAKMILIK": "30198", "CUKAI": "RM563.00", "SYARAT": "First Grade", "SYARIKAT": "Fortress Hill Sdn. Bhd.", "ALAMAT": "Suit 1, @nd Floor, Wisma Lister Garden, 123, 10400 Pulau Pinang", "STD_SHEET": "7-D-I", "AREA": "1045 Msq" }, "geometry": { "type": "Polygon", "coordinates": [ [ [ 100.305873227345799, 5.446339270995149 ], [ 100.306092987836649, 5.446350697109925 ], [ 100.306112909256129, 5.445965878840723 ], [ 100.305929469089875, 5.445952212420218 ], [ 100.305893410902925, 5.44594952438403 ], [ 100.305873227345799, 5.446339270995149 ] ] ] } },
{ "type": "Feature", "properties": { "OBJECTID": 41, "LOT": 596, "NEGERI": "Pulau Pinang", "DAERAH": "Timor Laut", "MUKIM": "Tanjong Tokong", "REGISTRATION": "Geran", "NO_HAKMILIK": "6788", "CUKAI": "RM462.00", "SYARAT": "First Grade", "SYARIKAT": "LPY Property Sdn. Bhd.", "ALAMAT": "347-V, Tingkat Pemancar, 11700 Gelugor Pulau Pinang", "STD_SHEET": "7-D-I", "AREA": "857 Msq" }, "geometry": { "type": "Polygon", "coordinates": [ [ [ 100.305358777012103, 5.445714103963322 ], [ 100.305728788359843, 5.445741681453587 ], [ 100.305747587911071, 5.445547541178844 ], [ 100.305460963846713, 5.445519706849533 ], [ 100.305392218935694, 5.445567439741451 ], [ 100.30536168455329, 5.445684036592889 ], [ 100.305358777012103, 5.445714103963322 ] ] ] } },
{ "type": "Feature", "properties": { "OBJECTID": 42, "LOT": 115, "NEGERI": "Pulau Pinang", "DAERAH": "Timor Laut", "MUKIM": "Tanjong Tokong", "REGISTRATION": "Geran", "NO_HAKMILIK": "52364", "CUKAI": "RM564.00", "SYARAT": "First Grade", "SYARIKAT": "LPY Property Sdn. Bhd.", "ALAMAT": "347-V, Tingkat Pemancar, 11700 Gelugor Pulau Pinang", "STD_SHEET": "7-D-I", "AREA": "1047 Msq" }, "geometry": { "type": "Polygon", "coordinates": [ [ [ 100.306148976468634, 5.445968566864357 ], [ 100.306186105808749, 5.445584527366422 ], [ 100.305967095178374, 5.445563262687162 ], [ 100.305929469089875, 5.445952212420218 ], [ 100.306112909256129, 5.445965878840723 ], [ 100.306148976468634, 5.445968566864357 ] ] ] } },
{ "type": "Feature", "properties": { "OBJECTID": 43, "LOT": 1652, "NEGERI": "Pulau Pinang", "DAERAH": "Timor Laut", "MUKIM": "Tanjong Tokong", "REGISTRATION": "Geran", "NO_HAKMILIK": "125402", "CUKAI": "RM823.00", "SYARAT": "First Grade", "SYARIKAT": "United Formula Sdn. Bhd.", "ALAMAT": "Suite 1, Tingkat 2, Wisma Lister Garden, 123, Jalan Macalister, 10400 Pulau Pinang", "STD_SHEET": "7-D-I", "AREA": "1523 Msq" }, "geometry": { "type": "Polygon", "coordinates": [ [ [ 100.305653466863859, 5.446327835757381 ], [ 100.305673903538548, 5.44593316080398 ], [ 100.305340022447453, 5.445908262312604 ], [ 100.305332998112988, 5.446249322919254 ], [ 100.305463900379166, 5.446301454518972 ], [ 100.305653466863859, 5.446327835757381 ] ] ] } },
{ "type": "Feature", "properties": { "OBJECTID": 44, "LOT": 595, "NEGERI": "Pulau Pinang", "DAERAH": "Timor Laut", "MUKIM": "Tanjong Tokong", "REGISTRATION": "Geran", "NO_HAKMILIK": "6792", "CUKAI": "RM478.00", "SYARAT": "First Grade", "SYARIKAT": "United Formula Sdn. Bhd.", "ALAMAT": "25-B, Farquhar Street, 10200 Pulau Pinang", "STD_SHEET": "7-D-I", "AREA": "886 Msq" }, "geometry": { "type": "Polygon", "coordinates": [ [ [ 100.305673903538548, 5.44593316080398 ], [ 100.305709979770768, 5.445935848854454 ], [ 100.305728788359843, 5.445741681453587 ], [ 100.305358777012103, 5.445714103963322 ], [ 100.305340022447453, 5.445908262312604 ], [ 100.305673903538548, 5.44593316080398 ] ] ] } },
{ "type": "Feature", "properties": { "OBJECTID": 45, "LOT": 105, "NEGERI": "Pulau Pinang", "DAERAH": "Timor Laut", "MUKIM": "Tanjong Tokong", "REGISTRATION": "Geran", "NO_HAKMILIK": "30197", "CUKAI": "RM570.00", "SYARAT": "First Grade", "SYARIKAT": "United Formula Sdn. Bhd.", "ALAMAT": "25-B, Farquhar Street, 10200 Pulau Pinang", "STD_SHEET": "7-D-I", "AREA": "1059 Msq" }, "geometry": { "type": "Polygon", "coordinates": [ [ [ 100.305653466863859, 5.446327835757381 ], [ 100.305873227345799, 5.446339270995149 ], [ 100.305893410902925, 5.44594952438403 ], [ 100.305709979770768, 5.445935848854454 ], [ 100.305673903538548, 5.44593316080398 ], [ 100.305653466863859, 5.446327835757381 ] ] ] } },
{ "type": "Feature", "properties": { "OBJECTID": 46, "LOT": 94, "NEGERI": "Pulau Pinang", "DAERAH": "Timor Laut", "MUKIM": "Tanjong Tokong", "REGISTRATION": "Geran", "NO_HAKMILIK": "17687", "CUKAI": "RM568.00", "SYARAT": "First Grade", "SYARIKAT": "United Formula Sdn. Bhd.", "ALAMAT": "25-B, Farquhar Street, 10200 Pulau Pinang", "STD_SHEET": "7-D-I", "AREA": "1054 Msq" }, "geometry": { "type": "Polygon", "coordinates": [ [ [ 100.306200256138695, 5.446850648284396 ], [ 100.306420378196592, 5.446855219804862 ], [ 100.306440443952596, 5.446468041348727 ], [ 100.306220656340599, 5.446456633444446 ], [ 100.306200256138695, 5.446850648284396 ] ] ] } },
{ "type": "Feature", "properties": { "OBJECTID": 47, "LOT": 93, "NEGERI": "Pulau Pinang", "DAERAH": "Timor Laut", "MUKIM": "Tanjong Tokong", "REGISTRATION": "Geran", "NO_HAKMILIK": "30188", "CUKAI": "RM576.00", "SYARAT": "First Grade", "SYARIKAT": "United Formula Sdn. Bhd.", "ALAMAT": "Suite 1, 2nd Floor, Wisma Lister Garden, No.123, Jalan Macalister, 10400 Georgetown, Pulau Pinang", "STD_SHEET": "7-D-I", "AREA": "1069 Msq" }, "geometry": { "type": "Polygon", "coordinates": [ [ [ 100.30598027867623, 5.446842703700526 ], [ 100.306178247542306, 5.446850194745306 ], [ 100.306200256138695, 5.446850648284396 ], [ 100.306220656340599, 5.446456633444446 ], [ 100.306000877761065, 5.446445216417724 ], [ 100.30598027867623, 5.446842703700526 ] ] ] } },
{ "type": "Feature", "properties": { "OBJECTID": 48, "LOT": 92, "NEGERI": "Pulau Pinang", "DAERAH": "Timor Laut", "MUKIM": "Tanjong Tokong", "REGISTRATION": "Geran", "NO_HAKMILIK": "30187", "CUKAI": "RM580.00", "SYARAT": "First Grade", "SYARIKAT": "United Formula Sdn. Bhd.", "ALAMAT": "Suite 1, 2nd Floor, Wisma Lister Garden, No.123, Jalan Macalister, 10400 Georgetown, Pulau Pinang", "STD_SHEET": "7-D-I", "AREA": "1077 Msq" }, "geometry": { "type": "Polygon", "coordinates": [ [ [ 100.305760355385004, 5.446834388281973 ], [ 100.30598027867623, 5.446842703700526 ], [ 100.306000877761065, 5.446445216417724 ], [ 100.305781117237075, 5.446433799312024 ], [ 100.305760355385004, 5.446834388281973 ] ] ] } },
{ "type": "Feature", "properties": { "OBJECTID": 49, "LOT": 1651, "NEGERI": "Pulau Pinang", "DAERAH": "Timor Laut", "MUKIM": "Tanjong Tokong", "REGISTRATION": "Geran", "NO_HAKMILIK": "125401", "CUKAI": "RM1151.00", "SYARAT": "First Grade", "SYARIKAT": "United Formula Sdn. Bhd.", "ALAMAT": "Suite 1, 2nd Floor, Wisma Lister Garden, No.123, Jalan Macalister, 10400 Georgetown, Pulau Pinang", "STD_SHEET": "7-D-I", "AREA": "2130 Msq" }, "geometry": { "type": "Polygon", "coordinates": [ [ [ 100.305748868336536, 5.44683395348742 ], [ 100.305760355385004, 5.446834388281973 ], [ 100.305781117237075, 5.446433799312024 ], [ 100.30542595775286, 5.446415374201167 ], [ 100.305320079447085, 5.446479996770075 ], [ 100.305344349405004, 5.446815208658909 ], [ 100.305748868336536, 5.44683395348742 ] ] ] } },
{ "type": "Feature", "properties": { "OBJECTID": 50, "LOT": 114, "NEGERI": "Pulau Pinang", "DAERAH": "Timor Laut", "MUKIM": "Tanjong Tokong", "REGISTRATION": "Geran", "NO_HAKMILIK": "30203", "CUKAI": "RM571.00", "SYARAT": "First Grade", "SYARIKAT": "United Formula Sdn. Bhd.", "ALAMAT": "Suite 1, 2nd Floor, Wisma Lister Garden, No.123, Jalan Macalister, 10400 Georgetown, Pulau Pinang", "STD_SHEET": "7-D-I", "AREA": "1060 Msq" }, "geometry": { "type": "Polygon", "coordinates": [ [ [ 100.305929469089875, 5.445952212420218 ], [ 100.305967095178374, 5.445563262687162 ], [ 100.305748075539199, 5.445542006970675 ], [ 100.305747587911071, 5.445547541178844 ], [ 100.305728788359843, 5.445741681453587 ], [ 100.305709979770768, 5.445935848854454 ], [ 100.305893410902925, 5.44594952438403 ], [ 100.305929469089875, 5.445952212420218 ] ] ] } },
{ "type": "Feature", "properties": { "OBJECTID": 51, "LOT": 95, "NEGERI": "Pulau Pinang", "DAERAH": "Timor Laut", "MUKIM": "Tanjong Tokong", "REGISTRATION": "Geran", "NO_HAKMILIK": "17688", "CUKAI": "RM558.00", "SYARAT": "First Grade", "SYARIKAT": "United Formula Sdn. Bhd.", "ALAMAT": "Suite 1, 2nd Floor, Wisma Lister Garden, No.123, Jalan Macalister, 10400 Georgetown, Pulau Pinang", "STD_SHEET": "7-D-I", "AREA": "1036 Msq" }, "geometry": { "type": "Polygon", "coordinates": [ [ [ 100.306420378196592, 5.446855219804862 ], [ 100.306630890107897, 5.446859591699495 ], [ 100.306640545380446, 5.446859718904736 ], [ 100.306660204159812, 5.446484938196098 ], [ 100.306660249619583, 5.446479458216872 ], [ 100.306440443952596, 5.446468041348727 ], [ 100.306420378196592, 5.446855219804862 ] ] ] } },
{ "type": "Feature", "properties": { "OBJECTID": 52, "LOT": 1145, "NEGERI": "Pulau Pinang", "DAERAH": "Timor Laut", "MUKIM": "Georgetown", "REGISTRATION": "Geran", "NO_HAKMILIK": "33698", "CUKAI": "RM6456.00", "SYARAT": "First Grade", "SYARIKAT": "Kah Motor Company Sdn. Bhd.", "ALAMAT": "124-A, Lengkok Sungai Pinang, Kampung Rawa,10150 GeorgeTown, Pulau Pinang", "STD_SHEET": "7-D-IV", "AREA": "11954 Msq" }, "geometry": { "type": "Polygon", "coordinates": [ [ [ 100.324829721723376, 5.427293665694961 ], [ 100.325326565871791, 5.426965895173236 ], [ 100.325266500704672, 5.42686603273143 ], [ 100.324956915636179, 5.426416763441392 ], [ 100.324510733529095, 5.425769459436074 ], [ 100.323876364677446, 5.426122770796786 ], [ 100.324829721723376, 5.427293665694961 ] ] ] } },
{ "type": "Feature", "properties": { "OBJECTID": 53, "LOT": 440, "NEGERI": "Pulau Pinang", "DAERAH": "Timor Laut", "MUKIM": "Georgetown", "REGISTRATION": "Geran", "NO_HAKMILIK": "Gt. 1188", "CUKAI": "M970.00", "SYARAT": "First Grade", "SYARIKAT": "Oriental Holdings Bhd.", "ALAMAT": "1st Floor, 25B Lebuh Farquhar, 10200 Pulau Pinang", "STD_SHEET": "7-D-IV", "AREA": "9005 Msq" }, "geometry": { "type": "Polygon", "coordinates": [ [ [ 100.324967220477134, 5.426410289068714 ], [ 100.325274261015636, 5.426858147583592 ], [ 100.325338161031979, 5.426960135222711 ], [ 100.32536925387052, 5.427009890137853 ], [ 100.325425358577419, 5.427085671250289 ], [ 100.32573253592534, 5.42692044926285 ], [ 100.325746494675656, 5.426931554352333 ], [ 100.325762519861655, 5.426939639182531 ], [ 100.325780160384824, 5.426942479190428 ], [ 100.325797954424331, 5.426941412677499 ], [ 100.32581469289147, 5.426935200731764 ], [ 100.325829653871111, 5.426925425835511 ], [ 100.325841222195407, 5.426911816652885 ], [ 100.325848594752713, 5.42689553064836 ], [ 100.325851816622645, 5.426877788612545 ], [ 100.325851302837563, 5.426859937947647 ], [ 100.326127042272688, 5.426708469017194 ], [ 100.325948712301269, 5.426476025365078 ], [ 100.325958638177781, 5.426468737104535 ], [ 100.325723130004889, 5.426156868005192 ], [ 100.325610830419777, 5.426006879284653 ], [ 100.325311692579618, 5.426194365046311 ], [ 100.324908334786031, 5.42555008300037 ], [ 100.3248214207253, 5.425598061729573 ], [ 100.325227701866751, 5.426247010052076 ], [ 100.324967220477134, 5.426410289068714 ] ] ] } },
{ "type": "Feature", "properties": { "OBJECTID": 54, "LOT": 1065, "NEGERI": "Pulau Pinang", "DAERAH": "Timor Laut", "MUKIM": "Georgetown", "REGISTRATION": "Geran", "NO_HAKMILIK": "4913", "CUKAI": "RM6311.00", "SYARAT": "First Grade", "SYARIKAT": "Northam One Sdn. Bhd.", "ALAMAT": "Suite 1, 2nd Floor, Wisma Lister Garden, No.123, Jalan Macalister, 10400 Georgetown, Pulau Pinang", "STD_SHEET": "7-D-IV", "AREA": "11724 Msq" }, "geometry": { "type": "Polygon", "coordinates": [ [ [ 100.326505189724458, 5.426167309029164 ], [ 100.326593271541597, 5.426297682860143 ], [ 100.327158175389286, 5.426019332166555 ], [ 100.326763458879228, 5.425416458953389 ], [ 100.326324098071154, 5.424739541018534 ], [ 100.326117307058112, 5.424876199895879 ], [ 100.326027162625138, 5.424931557694793 ], [ 100.325757785501196, 5.425079780392302 ], [ 100.325821036071289, 5.425170753735068 ], [ 100.326035411432656, 5.425479077354711 ], [ 100.32607948834476, 5.42554376242834 ], [ 100.326490617711798, 5.426145352480045 ], [ 100.326505189724458, 5.426167309029164 ] ] ] } },
{ "type": "Feature", "properties": { "OBJECTID": 55, "LOT": 1063, "NEGERI": "Pulau Pinang", "DAERAH": "Timor Laut", "MUKIM": "Georgetown", "REGISTRATION": "Geran", "NO_HAKMILIK": "33693", "CUKAI": "RM4412.00", "SYARAT": "First Grade", "SYARIKAT": "Setia Sevania Sdn. Bhd.", "ALAMAT": "Level 6, 33B Jalan Pahang, 10400 Georgetown Pulau Pinang", "STD_SHEET": "7-D-IV", "AREA": "8170 Msq" }, "geometry": { "type": "Polygon", "coordinates": [ [ [ 100.327250253817141, 5.426179420927951 ], [ 100.327265674349249, 5.42619076113901 ], [ 100.327285300108258, 5.42618932387586 ], [ 100.327553034570627, 5.426060524569272 ], [ 100.327788085996772, 5.425949131796028 ], [ 100.327802803296251, 5.425939157900349 ], [ 100.327812458544869, 5.425928107762636 ], [ 100.327813965828923, 5.425913792921059 ], [ 100.327810104671741, 5.425883680016796 ], [ 100.32780385214501, 5.425860593366587 ], [ 100.327638861108127, 5.425523822835132 ], [ 100.327505233846878, 5.425237856045912 ], [ 100.327483335478647, 5.425194992170928 ], [ 100.327367201524297, 5.425016735612653 ], [ 100.327338100830232, 5.42503623124842 ], [ 100.326815055138169, 5.425382314529705 ], [ 100.326763458879228, 5.425416458953389 ], [ 100.327158175389286, 5.426019332166555 ], [ 100.327250253817141, 5.426179420927951 ] ] ] } },
{ "type": "Feature", "properties": { "OBJECTID": 56, "LOT": 1061, "NEGERI": "Pulau Pinang", "DAERAH": "Timor Laut", "MUKIM": "Georgetown", "REGISTRATION": "Geran", "NO_HAKMILIK": "7153", "CUKAI": "RM663.00", "SYARAT": "First Grade", "SYARIKAT": "Prestige Global Equity Sdn. Bhd.", "ALAMAT": "50, Jalan Khaw Sim Bee, 10400 Pulau Pinang", "STD_SHEET": "7-D-IV", "AREA": "1230 Msq" }, "geometry": { "type": "Polygon", "coordinates": [ [ [ 100.326733303952963, 5.424140688181505 ], [ 100.326802261379243, 5.424090357502921 ], [ 100.326877218739568, 5.424058781929192 ], [ 100.326911264374104, 5.424031934593859 ], [ 100.326925567444164, 5.423991540448595 ], [ 100.326917718369046, 5.423950349890188 ], [ 100.326782106695958, 5.423663460497145 ], [ 100.326540919138608, 5.423808917249312 ], [ 100.326733303952963, 5.424140688181505 ] ] ] } },
{ "type": "Feature", "properties": { "OBJECTID": 57, "LOT": 442, "NEGERI": "Pulau Pinang", "DAERAH": "Timor Laut", "MUKIM": "Georgetown", "REGISTRATION": "Geran", "NO_HAKMILIK": "6001", "CUKAI": "RM1596.00", "SYARAT": "First Grade", "SYARIKAT": "Tiara Peninsular Development Sdn. Bhd.", "ALAMAT": "Suite 1, 2nd Floor, Wisma Lister Garden, No.123, Jalan Macalister, 10400 Georgetown, Pulau Pinang", "STD_SHEET": "7-D-IV", "AREA": "2964 Msq" }, "geometry": { "type": "Polygon", "coordinates": [ [ [ 100.324908334786031, 5.42555008300037 ], [ 100.325311692579618, 5.426194365046311 ], [ 100.325610830419777, 5.426006879284653 ], [ 100.325166342599729, 5.425413227227146 ], [ 100.325158690877771, 5.425411879594517 ], [ 100.324908334786031, 5.42555008300037 ] ] ] } },
{ "type": "Feature", "properties": { "OBJECTID": 58, "LOT": 215, "NEGERI": "Pulau Pinang", "DAERAH": "Timor Laut", "MUKIM": "Bandar Bukit Jambul", "REGISTRATION": "Geran", "NO_HAKMILIK": "63966", "CUKAI": "RM176.00", "SYARAT": "Second Class", "SYARIKAT": "Fabulous Home Sdn. Bhd.", "ALAMAT": "25-B, Farquhar Street, 10200 Pulau Pinang", "STD_SHEET": "11-D-III", "AREA": "40949 Msq" }, "geometry": { "type": "Polygon", "coordinates": [ [ [ 100.299468329710976, 5.361265574804749 ], [ 100.299393147536804, 5.361126570877475 ], [ 100.299367908692375, 5.361048555929368 ], [ 100.299309502129972, 5.36086856176244 ], [ 100.299224792433435, 5.36060676358101 ], [ 100.299182116144365, 5.360614546366776 ], [ 100.299072646495333, 5.360634514036189 ], [ 100.298963555782592, 5.360654418413776 ], [ 100.298854465064124, 5.360674304686041 ], [ 100.298744147281326, 5.360694425962657 ], [ 100.298644069995845, 5.360712730362025 ], [ 100.298582347245798, 5.360724020326874 ], [ 100.298538416631871, 5.360734506800582 ], [ 100.298444672723022, 5.360756853817598 ], [ 100.298350937829724, 5.360779200820859 ], [ 100.298257211952631, 5.360801538767464 ], [ 100.298224839169876, 5.360809258962441 ], [ 100.298162719378084, 5.36082109142878 ], [ 100.29807418175325, 5.360837958785049 ], [ 100.298068064409449, 5.360840454162265 ], [ 100.297978505747395, 5.360877270062895 ], [ 100.297888956096926, 5.360914085950966 ], [ 100.297797376342729, 5.360951733617966 ], [ 100.297560074081375, 5.36102122827166 ], [ 100.297093300806651, 5.361160190777638 ], [ 100.296766562248408, 5.361313722905471 ], [ 100.296682371531418, 5.361353279030586 ], [ 100.296163998571132, 5.361611566888825 ], [ 100.29656683891676, 5.361833628795388 ], [ 100.296760152835859, 5.362058043403572 ], [ 100.29679400598188, 5.362275482535115 ], [ 100.296995131431132, 5.362643743062274 ], [ 100.297167817467042, 5.362673950652967 ], [ 100.297468294249214, 5.362615791761107 ], [ 100.297909711771098, 5.362170399392823 ], [ 100.298386909990811, 5.361743257955003 ], [ 100.298696538125299, 5.361520066233735 ], [ 100.299011926376394, 5.361730572219995 ], [ 100.299264049523146, 5.361701563157969 ], [ 100.299571901463651, 5.361457092917774 ], [ 100.299468329710976, 5.361265574804749 ] ] ] } },
{ "type": "Feature", "properties": { "OBJECTID": 59, "LOT": 6085, "NEGERI": "Pulau Pinang", "DAERAH": "Timor Laut", "MUKIM": "Bandar Bukit Jambul", "REGISTRATION": "Geran", "NO_HAKMILIK": "St. Gt. 2731/6522", "CUKAI": "RM84.40", "SYARAT": "Second Class", "SYARIKAT": "Boon Siew Sdn. Bhd.", "ALAMAT": "Suite 123K, Tingkat 2, Wisma Lister Garden, Jalan Macalister, 10400 Pulau Pinang", "STD_SHEET": "11-C-II", "AREA": "4.834 Ha" }, "geometry": { "type": "Polygon", "coordinates": [ [ [ 100.286575847388463, 5.376584034201107 ], [ 100.286840834637474, 5.376552662324338 ], [ 100.287108043318881, 5.376500916902741 ], [ 100.287359506065556, 5.376368118441629 ], [ 100.28776545154696, 5.376254496119029 ], [ 100.287890375339217, 5.376285470563623 ], [ 100.288006290558343, 5.376360473997447 ], [ 100.288135932669491, 5.376102202844755 ], [ 100.288242211834458, 5.375979473440835 ], [ 100.288320359311513, 5.37584862995832 ], [ 100.288400841972646, 5.375735619264967 ], [ 100.288627678930041, 5.375631384512761 ], [ 100.288852933701904, 5.375562018928676 ], [ 100.288917895660489, 5.375568056446195 ], [ 100.288848843351829, 5.375297721905522 ], [ 100.288611617957471, 5.375243424826035 ], [ 100.288438717748235, 5.374955429011286 ], [ 100.288282736840145, 5.374844476474737 ], [ 100.288236629761357, 5.374765600116438 ], [ 100.288043313746115, 5.374653034448365 ], [ 100.287862708913693, 5.374460684445286 ], [ 100.28806392401988, 5.374623050114873 ], [ 100.288263212652438, 5.374739007410785 ], [ 100.28831013162241, 5.374819421133674 ], [ 100.28846592307103, 5.374930201830961 ], [ 100.288634835917549, 5.375211541704387 ], [ 100.288878665679732, 5.375267385710277 ], [ 100.288671325585241, 5.375085676999704 ], [ 100.288693922097011, 5.374842823108597 ], [ 100.288574088734265, 5.374597632184797 ], [ 100.288159396811608, 5.374075177109592 ], [ 100.288081700944247, 5.373908093440988 ], [ 100.287763015660133, 5.374005211775107 ], [ 100.287410431083032, 5.374021112549608 ], [ 100.28712782922878, 5.37399565749209 ], [ 100.28718835362892, 5.374176747112741 ], [ 100.287055782734214, 5.37439726372457 ], [ 100.287103119402801, 5.374447221112773 ], [ 100.287108643334165, 5.37471420402098 ], [ 100.286974788708079, 5.374863788033055 ], [ 100.286902563751738, 5.375049486094999 ], [ 100.286804230289675, 5.375397049474431 ], [ 100.286568767181066, 5.37569635602198 ], [ 100.286511566215069, 5.375864819699184 ], [ 100.286528479000694, 5.376104132424989 ], [ 100.286473554920974, 5.376333735311068 ], [ 100.286557870791455, 5.376430999620882 ], [ 100.286575847388463, 5.376584034201107 ] ] ] } },
{ "type": "Feature", "properties": { "OBJECTID": 60, "LOT": 528, "NEGERI": "Pulau Pinang", "DAERAH": "Timor Laut", "MUKIM": "Bandar Puncak Penara", "REGISTRATION": "Geran Mukim", "NO_HAKMILIK": "Ind. 51 & 191", "CUKAI": "RM61.00", "SYARAT": "First Grade", "SYARIKAT": "Boon Siew Sdn. Bhd.", "ALAMAT": "Suite 123K, Tingkat 2, Wisma Lister Garden, Jalan Macalister, 10400 Pulau Pinang", "STD_SHEET": "11-C-II", "AREA": "37669 Msq" }, "geometry": { "type": "Polygon", "coordinates": [ [ [ 100.271009372199501, 5.376872592392274 ], [ 100.271110898011358, 5.376842184311357 ], [ 100.271192380154986, 5.376849365103322 ], [ 100.271392097029562, 5.37675794732396 ], [ 100.27199466477191, 5.376654107260575 ], [ 100.272227691074008, 5.376501102029218 ], [ 100.272362297560292, 5.376436605952245 ], [ 100.2721765573054, 5.376294981379212 ], [ 100.271954025257017, 5.376058402034459 ], [ 100.271927261704889, 5.37577496754034 ], [ 100.272092524207039, 5.375349591478947 ], [ 100.270485763716835, 5.374257515219771 ], [ 100.270229614638666, 5.37394962798538 ], [ 100.270507674741594, 5.374596490628108 ], [ 100.270358151890335, 5.375053590627571 ], [ 100.270410825732881, 5.375276911192855 ], [ 100.270344937509762, 5.375546128134051 ], [ 100.270449244799039, 5.375942065643754 ], [ 100.27038123200974, 5.376171348922131 ], [ 100.270407724391788, 5.376228792572415 ], [ 100.270798660052336, 5.376334822514456 ], [ 100.270892551239712, 5.376542187300884 ], [ 100.270982602934069, 5.376866268192239 ], [ 100.271009372199501, 5.376872592392274 ] ] ] } }
]
}
